; generated by PrusaSlicer 2.9.4 on 2026-06-05 at 15:15:21 UTC

; 

; external perimeters extrusion width = 0.45mm
; perimeters extrusion width = 0.45mm
; infill extrusion width = 0.45mm
; solid infill extrusion width = 0.45mm
; top infill extrusion width = 0.40mm
; first layer extrusion width = 0.40mm

M73 P0 R109
M73 Q0 S111

; printing object box.stl id:0 copy 0
; stop printing object box.stl id:0 copy 0

;TYPE:Custom
M117 Heating and Homing... ; Display message on screen
G90 ; Use absolute coordinates
M83 ; Extruder relative mode
G28 ; Home all axes
M104 S230 ; Set extruder temperature without waiting
M140 S80 ; Set bed temperature without waiting

M190 S80 ; Wait for bed to reach temperature
M109 S230 ; Wait for extruder to reach temperature

G92 E0 ; Reset extrusion distance
G28 ; Home all axes
G1 Z10; Z AXIS FROM SAFE POINT.
M73 P0 R108
G92 E0 ; Reset extrusion distance
G21 ; set units to millimeters
G90 ; use absolute coordinates
M82 ; use absolute distances for extrusion
G92 E0
; Filament gcode
M107


;LAYER_CHANGE
;Z:38.3
;HEIGHT:0.200001
G1 E149.50447 F2400
G92 E0
G1 Z38.3 F7800
G1 X128.961 Y128.961
G1 E2 F2400
;TYPE:Perimeter
;WIDTH:0.449999
G1 F3254
G1 X91.039 Y128.961 E3.28361
G1 X91.039 Y91.039 E4.56722
G1 X128.961 Y91.039 E5.85083
G1 X128.961 Y128.901 E7.13241
G1 X129.368 Y129.368 F7800
G1 F3254
G1 X90.632 Y129.368 E8.44358
G1 X90.632 Y90.632 E9.75475
G1 X129.368 Y90.632 E11.06592
G1 X129.368 Y129.308 E12.37505
G1 X129.775 Y129.775 F7800
;TYPE:External perimeter
G1 F2400
G1 X90.225 Y129.775 E13.71377
G1 X90.225 Y90.225 E15.05249
G1 X129.775 Y90.225 E16.39121
G1 X129.775 Y129.715 E17.7279
G1 X129.379 Y129.774 F7800
;LAYER_CHANGE
;Z:38.5
;HEIGHT:0.200001
G1 Z38.5 F7800
G1 X128.961 Y128.961
;TYPE:Perimeter
G1 F4800
G1 X91.039 Y128.961 E19.01151
G1 X91.039 Y91.039 E20.29512
G1 X128.961 Y91.039 E21.57873
G1 X128.961 Y128.901 E22.86031
G1 X129.368 Y129.368 F7800
G1 F4800
G1 X90.632 Y129.368 E24.17148
G1 X90.632 Y90.632 E25.48265
G1 X129.368 Y90.632 E26.79382
G1 X129.368 Y129.308 E28.10295
G1 X129.775 Y129.775 F7800
;TYPE:External perimeter
G1 F2400
G1 X90.225 Y129.775 E29.44167
G1 X90.225 Y90.225 E30.78039
G1 X129.775 Y90.225 E32.11911
G1 X129.775 Y129.715 E33.4558
G1 X129.379 Y129.774 F7800
G1 X128.17 Y128.839
;TYPE:Internal infill
;WIDTH:0.45
;HEIGHT:0.4
G1 F4800
G1 X128.656 Y128.354 E33.49738
G1 X128.656 Y127.531 E33.54722
G1 X127.531 Y128.656 E33.64357
G1 X126.709 Y128.656 E33.69335
G1 X128.656 Y126.709 E33.8601
G1 X128.656 Y125.886 E33.90994
G1 X125.886 Y128.656 E34.14718
G1 X125.064 Y128.656 E34.19696
G1 X128.656 Y125.064 E34.5046
G1 X128.656 Y124.241 E34.55444
G1 X124.241 Y128.656 E34.93256
G1 X123.419 Y128.656 E34.98234
G1 X128.656 Y123.419 E35.43086
G1 X128.656 Y122.597 E35.48064
G1 X122.597 Y128.656 E35.99956
G1 X121.774 Y128.656 E36.0494
G1 X128.656 Y121.774 E36.63881
G1 X128.656 Y120.952 E36.68859
G1 X120.952 Y128.656 E37.3484
G1 X120.129 Y128.656 E37.39824
G1 X128.656 Y120.129 E38.12853
G1 X128.656 Y119.307 E38.17831
G1 X119.307 Y128.656 E38.979
G1 X118.484 Y128.656 E39.02884
G1 X128.656 Y118.484 E39.90002
G1 X128.656 Y117.662 E39.9498
G1 X117.662 Y128.656 E40.89138
G1 X116.84 Y128.656 E40.94116
G1 X128.656 Y116.84 E41.95314
G1 X128.656 Y116.017 E42.00298
G1 X116.017 Y128.656 E43.08544
G1 X115.195 Y128.656 E43.13522
G1 X128.656 Y115.195 E44.28808
G1 X128.656 Y114.372 E44.33792
G1 X114.372 Y128.656 E45.56127
G1 X113.55 Y128.656 E45.61105
G1 X128.656 Y113.55 E46.9048
G1 X128.656 Y112.728 E46.95458
G1 X112.728 Y128.656 E48.31873
G1 X111.905 Y128.656 E48.36857
G1 X128.656 Y111.905 E49.8032
G1 X128.656 Y111.083 E49.85298
G1 X111.083 Y128.656 E51.35801
G1 X110.26 Y128.656 E51.40785
G1 X128.656 Y110.26 E52.98337
G1 X128.656 Y109.438 E53.03315
G1 X109.438 Y128.656 E54.67907
G1 X108.615 Y128.656 E54.72891
G1 X128.656 Y108.615 E56.44531
G1 X128.656 Y107.793 E56.49509
G1 X107.793 Y128.656 E58.28189
G1 X106.971 Y128.656 E58.33167
G1 X128.656 Y106.971 E60.18887
G1 X128.656 Y106.148 E60.23871
G1 X106.148 Y128.656 E62.1664
G1 X105.326 Y128.656 E62.21618
G1 X128.656 Y105.326 E64.21427
G1 X128.656 Y104.503 E64.26411
M73 Q89 S12
G1 X104.503 Y128.656 E66.33269
G1 X103.681 Y128.656 E66.38247
G1 X128.656 Y103.681 E68.52145
G1 X128.656 Y102.858 E68.57129
G1 X102.858 Y128.656 E70.78075
G1 X102.036 Y128.656 E70.83053
G1 X128.656 Y102.036 E73.11039
G1 X128.656 Y101.214 E73.16017
G1 X101.214 Y128.656 E75.51043
G1 X100.391 Y128.656 E75.56027
G1 X128.656 Y100.391 E77.98102
G1 X128.656 Y99.569 E78.0308
G1 X99.569 Y128.656 E80.52195
G1 X98.746 Y128.656 E80.57179
G1 X128.656 Y98.746 E83.13342
G1 X128.656 Y97.924 E83.1832
G1 X97.924 Y128.656 E85.81523
G1 X97.101 Y128.656 E85.86507
G1 X128.656 Y97.101 E88.56759
G1 X128.656 Y96.279 E88.61737
G1 X96.279 Y128.656 E91.39029
G1 X95.457 Y128.656 E91.44007
G1 X128.656 Y95.457 E94.28339
G1 X128.656 Y94.634 E94.33323
G1 X94.634 Y128.656 E97.24703
G1 X93.812 Y128.656 E97.29681
G1 X128.656 Y93.812 E100.28101
G1 X128.656 Y92.989 E100.33085
G1 X92.989 Y128.656 E103.38554
G1 X92.167 Y128.656 E103.43532
M73 P89 R12
G1 X128.656 Y92.167 E106.56041
G1 X128.656 Y91.344 E106.61025
G1 X91.344 Y128.656 E109.80582
G1 X91.344 Y127.833 E109.85566
G1 X127.833 Y91.344 E112.98075
G1 X127.011 Y91.344 E113.03053
M73 P89 R11
G1 X91.344 Y127.011 E116.08522
G1 X91.344 Y126.188 E116.13506
G1 X126.188 Y91.344 E119.11926
G1 X125.366 Y91.344 E119.16904
G1 X91.344 Y125.366 E122.08284
G1 X91.344 Y124.543 E122.13268
G1 X124.543 Y91.344 E124.976
G1 X123.721 Y91.344 E125.02578
G1 X91.344 Y123.721 E127.7987
G1 X91.344 Y122.899 E127.84848
G1 X122.899 Y91.344 E130.551
G1 X122.076 Y91.344 E130.60084
G1 X91.344 Y122.076 E133.23287
G1 X91.344 Y121.254 E133.28265
G1 X121.254 Y91.344 E135.84428
G1 X120.431 Y91.344 E135.89412
G1 X91.344 Y120.431 E138.38527
G1 X91.344 Y119.609 E138.43505
G1 X119.609 Y91.344 E140.8558
G1 X118.786 Y91.344 E140.90564
G1 X91.344 Y118.786 E143.2559
G1 X91.344 Y117.964 E143.30568
M73 Q89 S11
G1 X117.964 Y91.344 E145.58554
G1 X117.142 Y91.344 E145.63532
G1 X91.344 Y117.142 E147.84478
G1 X91.344 Y116.319 E147.89462
G1 X116.319 Y91.344 E150.0336
G1 X115.497 Y91.344 E150.08338
G1 X91.344 Y115.497 E152.15196
G1 X91.344 Y114.674 E152.2018
G1 X114.674 Y91.344 E154.19989
G1 X113.852 Y91.344 E154.24967
G1 X91.344 Y113.852 E156.17736
G1 X91.344 Y113.029 E156.2272
G1 X113.029 Y91.344 E158.0844
G1 X112.207 Y91.344 E158.13418
G1 X91.344 Y112.207 E159.92098
G1 X91.344 Y111.385 E159.97076
G1 X111.385 Y91.344 E161.68716
G1 X110.562 Y91.344 E161.737
G1 X91.344 Y110.562 E163.38292
G1 X91.344 Y109.74 E163.4327
G1 X109.74 Y91.344 E165.00822
G1 X108.917 Y91.344 E165.05806
G1 X91.344 Y108.917 E166.56309
G1 X91.344 Y108.095 E166.61287
G1 X108.095 Y91.344 E168.0475
G1 X107.272 Y91.344 E168.09734
G1 X91.344 Y107.272 E169.46149
G1 X91.344 Y106.45 E169.51127
G1 X106.45 Y91.344 E170.80502
G1 X105.628 Y91.344 E170.8548
G1 X91.344 Y105.628 E172.07815
G1 X91.344 Y104.805 E172.12799
G1 X104.805 Y91.344 E173.28085
G1 X103.983 Y91.344 E173.33063
G1 X91.344 Y103.983 E174.41309
G1 X91.344 Y103.16 E174.46293
G1 X103.16 Y91.344 E175.47491
G1 X102.338 Y91.344 E175.52469
G1 X91.344 Y102.338 E176.46627
G1 X91.344 Y101.516 E176.51605
G1 X101.516 Y91.344 E177.38723
G1 X100.693 Y91.344 E177.43707
G1 X91.344 Y100.693 E178.23776
G1 X91.344 Y99.871 E178.28754
G1 X99.871 Y91.344 E179.01783
G1 X99.048 Y91.344 E179.06767
G1 X91.344 Y99.048 E179.72748
G1 X91.344 Y98.226 E179.77726
G1 X98.226 Y91.344 E180.36667
G1 X97.403 Y91.344 E180.41651
G1 X91.344 Y97.403 E180.93543
G1 X91.344 Y96.581 E180.98521
G1 X96.581 Y91.344 E181.43373
G1 X95.759 Y91.344 E181.48351
G1 X91.344 Y95.759 E181.86163
G1 X91.344 Y94.936 E181.91147
G1 X94.936 Y91.344 E182.21911
G1 X94.114 Y91.344 E182.26889
G1 X91.344 Y94.114 E182.50613
G1 X91.344 Y93.291 E182.55597
G1 X93.291 Y91.344 E182.72272
G1 X92.469 Y91.344 E182.7725
G1 X91.344 Y92.469 E182.86885
G1 X91.344 Y91.646 E182.91869
G1 X91.83 Y91.161 E182.96027
;LAYER_CHANGE
;Z:38.7
;HEIGHT:0.200001
G1 E180.96027 F2400
G92 E0
G1 Z38.7 F7800
G1 X128.961 Y128.961
G1 E2 F2400
;TYPE:Perimeter
;WIDTH:0.449999
G1 F3323
G1 X91.039 Y128.961 E3.28361
G1 X91.039 Y91.039 E4.56722
G1 X128.961 Y91.039 E5.85083
G1 X128.961 Y128.901 E7.13241
G1 X129.368 Y129.368 F7800
G1 F3323
G1 X90.632 Y129.368 E8.44358
G1 X90.632 Y90.632 E9.75475
G1 X129.368 Y90.632 E11.06592
G1 X129.368 Y129.308 E12.37505
G1 X129.775 Y129.775 F7800
;TYPE:External perimeter
G1 F2400
G1 X90.225 Y129.775 E13.71377
G1 X90.225 Y90.225 E15.05249
G1 X129.775 Y90.225 E16.39121
G1 X129.775 Y129.715 E17.7279
G1 X129.379 Y129.774 F7800
;LAYER_CHANGE
;Z:38.9
;HEIGHT:0.200001
G1 Z38.9 F7800
G1 X128.961 Y128.961
;TYPE:Perimeter
G1 F4800
G1 X91.039 Y128.961 E19.01151
G1 X91.039 Y91.039 E20.29512
G1 X128.961 Y91.039 E21.57873
G1 X128.961 Y128.901 E22.86031
G1 X129.368 Y129.368 F7800
G1 F4800
G1 X90.632 Y129.368 E24.17148
G1 X90.632 Y90.632 E25.48265
G1 X129.368 Y90.632 E26.79382
G1 X129.368 Y129.308 E28.10295
G1 X129.775 Y129.775 F7800
;TYPE:External perimeter
G1 F2400
G1 X90.225 Y129.775 E29.44167
G1 X90.225 Y90.225 E30.78039
G1 X129.775 Y90.225 E32.11911
G1 X129.775 Y129.715 E33.4558
G1 X129.379 Y129.774 F7800
G1 E31.4558 F2400
G92 E0
G1 X128.839 Y91.83 F7800
G1 E2 F2400
;TYPE:Internal infill
;WIDTH:0.45
;HEIGHT:0.4
G1 F4800
G1 X128.354 Y91.344 E2.04158
G1 X127.531 Y91.344 E2.09142
G1 X128.656 Y92.469 E2.18777
G1 X128.656 Y93.291 E2.23755
G1 X126.709 Y91.344 E2.4043
G1 X125.886 Y91.344 E2.45414
G1 X128.656 Y94.114 E2.69138
G1 X128.656 Y94.936 E2.74116
G1 X125.064 Y91.344 E3.0488
G1 X124.241 Y91.344 E3.09864
G1 X128.656 Y95.759 E3.47676
G1 X128.656 Y96.581 E3.52654
G1 X123.419 Y91.344 E3.97506
G1 X122.597 Y91.344 E4.02484
G1 X128.656 Y97.403 E4.54376
G1 X128.656 Y98.226 E4.5936
G1 X121.774 Y91.344 E5.18301
G1 X120.952 Y91.344 E5.23279
G1 X128.656 Y99.048 E5.8926
G1 X128.656 Y99.871 E5.94244
G1 X120.129 Y91.344 E6.67273
G1 X119.307 Y91.344 E6.72251
G1 X128.656 Y100.693 E7.5232
G1 X128.656 Y101.516 E7.57304
G1 X118.484 Y91.344 E8.44422
G1 X117.662 Y91.344 E8.494
G1 X128.656 Y102.338 E9.43558
G1 X128.656 Y103.16 E9.48536
G1 X116.84 Y91.344 E10.49734
G1 X116.017 Y91.344 E10.54718
G1 X128.656 Y103.983 E11.62964
G1 X128.656 Y104.805 E11.67942
G1 X115.195 Y91.344 E12.83228
G1 X114.372 Y91.344 E12.88212
G1 X128.656 Y105.628 E14.10547
G1 X128.656 Y106.45 E14.15525
G1 X113.55 Y91.344 E15.449
G1 X112.728 Y91.344 E15.49878
G1 X128.656 Y107.272 E16.86293
G1 X128.656 Y108.095 E16.91277
G1 X111.905 Y91.344 E18.3474
G1 X111.083 Y91.344 E18.39718
G1 X128.656 Y108.917 E19.90221
G1 X128.656 Y109.74 E19.95205
G1 X110.26 Y91.344 E21.52757
G1 X109.438 Y91.344 E21.57735
G1 X128.656 Y110.562 E23.22327
G1 X128.656 Y111.385 E23.27311
G1 X108.615 Y91.344 E24.98951
G1 X107.793 Y91.344 E25.03929
G1 X128.656 Y112.207 E26.82609
G1 X128.656 Y113.029 E26.87587
G1 X106.971 Y91.344 E28.73307
G1 X106.148 Y91.344 E28.78291
G1 X128.656 Y113.852 E30.7106
G1 X128.656 Y114.674 E30.76038
G1 X105.326 Y91.344 E32.75847
G1 X104.503 Y91.344 E32.80831
G1 X128.656 Y115.497 E34.87689
G1 X128.656 Y116.319 E34.92667
G1 X103.681 Y91.344 E37.06565
G1 X102.858 Y91.344 E37.11549
G1 X128.656 Y117.142 E39.32495
G1 X128.656 Y117.964 E39.37473
G1 X102.036 Y91.344 E41.65459
G1 X101.214 Y91.344 E41.70437
G1 X128.656 Y118.786 E44.05463
G1 X128.656 Y119.609 E44.10447
G1 X100.391 Y91.344 E46.52522
G1 X99.569 Y91.344 E46.575
G1 X128.656 Y120.431 E49.06615
G1 X128.656 Y121.254 E49.11599
G1 X98.746 Y91.344 E51.67762
G1 X97.924 Y91.344 E51.7274
G1 X128.656 Y122.076 E54.35943
G1 X128.656 Y122.899 E54.40927
G1 X97.101 Y91.344 E57.11179
G1 X96.279 Y91.344 E57.16157
G1 X128.656 Y123.721 E59.93449
G1 X128.656 Y124.543 E59.98427
G1 X95.457 Y91.344 E62.82759
G1 X94.634 Y91.344 E62.87743
G1 X128.656 Y125.366 E65.79123
G1 X128.656 Y126.188 E65.84101
G1 X93.812 Y91.344 E68.82521
G1 X92.989 Y91.344 E68.87505
G1 X128.656 Y127.011 E71.92974
G1 X128.656 Y127.833 E71.97952
G1 X92.167 Y91.344 E75.10461
G1 X91.344 Y91.344 E75.15445
M73 Q90 S11
G1 X128.656 Y128.656 E78.35002
G1 X127.833 Y128.656 E78.39986
G1 X91.344 Y92.167 E81.52495
G1 X91.344 Y92.989 E81.57473
G1 X127.011 Y128.656 E84.62942
G1 X126.188 Y128.656 E84.67926
G1 X91.344 Y93.812 E87.66346
G1 X91.344 Y94.634 E87.71324
G1 X125.366 Y128.656 E90.62704
G1 X124.543 Y128.656 E90.67688
G1 X91.344 Y95.457 E93.5202
G1 X91.344 Y96.279 E93.56998
G1 X123.721 Y128.656 E96.3429
G1 X122.899 Y128.656 E96.39268
G1 X91.344 Y97.101 E99.0952
G1 X91.344 Y97.924 E99.14504
M73 P89 R10
G1 X122.076 Y128.656 E101.77707
G1 X121.254 Y128.656 E101.82685
G1 X91.344 Y98.746 E104.38848
G1 X91.344 Y99.569 E104.43832
G1 X120.431 Y128.656 E106.92947
G1 X119.609 Y128.656 E106.97925
G1 X91.344 Y100.391 E109.4
G1 X91.344 Y101.214 E109.44984
G1 X118.786 Y128.656 E111.8001
G1 X117.964 Y128.656 E111.84988
G1 X91.344 Y102.036 E114.12974
G1 X91.344 Y102.858 E114.17952
M73 P90 R10
G1 X117.142 Y128.656 E116.38898
G1 X116.319 Y128.656 E116.43882
G1 X91.344 Y103.681 E118.5778
G1 X91.344 Y104.503 E118.62758
G1 X115.497 Y128.656 E120.69616
G1 X114.674 Y128.656 E120.746
G1 X91.344 Y105.326 E122.74409
G1 X91.344 Y106.148 E122.79387
M73 Q90 S10
G1 X113.852 Y128.656 E124.72156
G1 X113.029 Y128.656 E124.7714
G1 X91.344 Y106.971 E126.6286
G1 X91.344 Y107.793 E126.67838
G1 X112.207 Y128.656 E128.46518
G1 X111.385 Y128.656 E128.51496
G1 X91.344 Y108.615 E130.23136
G1 X91.344 Y109.438 E130.2812
G1 X110.562 Y128.656 E131.92712
G1 X109.74 Y128.656 E131.9769
G1 X91.344 Y110.26 E133.55242
G1 X91.344 Y111.083 E133.60226
G1 X108.917 Y128.656 E135.10729
G1 X108.095 Y128.656 E135.15707
G1 X91.344 Y111.905 E136.5917
G1 X91.344 Y112.728 E136.64154
G1 X107.272 Y128.656 E138.00569
G1 X106.45 Y128.656 E138.05547
G1 X91.344 Y113.55 E139.34922
G1 X91.344 Y114.372 E139.399
G1 X105.628 Y128.656 E140.62235
G1 X104.805 Y128.656 E140.67219
G1 X91.344 Y115.195 E141.82505
G1 X91.344 Y116.017 E141.87483
G1 X103.983 Y128.656 E142.95729
G1 X103.16 Y128.656 E143.00713
G1 X91.344 Y116.84 E144.01911
G1 X91.344 Y117.662 E144.06889
G1 X102.338 Y128.656 E145.01047
G1 X101.516 Y128.656 E145.06025
G1 X91.344 Y118.484 E145.93143
G1 X91.344 Y119.307 E145.98127
G1 X100.693 Y128.656 E146.78196
G1 X99.871 Y128.656 E146.83174
G1 X91.344 Y120.129 E147.56203
G1 X91.344 Y120.952 E147.61187
G1 X99.048 Y128.656 E148.27168
G1 X98.226 Y128.656 E148.32146
G1 X91.344 Y121.774 E148.91087
G1 X91.344 Y122.597 E148.96071
G1 X97.403 Y128.656 E149.47963
G1 X96.581 Y128.656 E149.52941
G1 X91.344 Y123.419 E149.97793
G1 X91.344 Y124.241 E150.02771
G1 X95.759 Y128.656 E150.40583
G1 X94.936 Y128.656 E150.45567
G1 X91.344 Y125.064 E150.76331
G1 X91.344 Y125.886 E150.81309
G1 X94.114 Y128.656 E151.05033
G1 X93.291 Y128.656 E151.10017
G1 X91.344 Y126.709 E151.26692
G1 X91.344 Y127.531 E151.3167
G1 X92.469 Y128.656 E151.41305
G1 X91.646 Y128.656 E151.46289
G1 X91.161 Y128.17 E151.50447
;LAYER_CHANGE
;Z:39.1
;HEIGHT:0.199997
G1 E149.50447 F2400
G92 E0
G1 Z39.1 F7800
G1 X128.961 Y128.961
G1 E2 F2400
;TYPE:Perimeter
;WIDTH:0.449999
G1 F3254
G1 X91.039 Y128.961 E3.28361
G1 X91.039 Y91.039 E4.56722
G1 X128.961 Y91.039 E5.85083
G1 X128.961 Y128.901 E7.13241
G1 X129.368 Y129.368 F7800
G1 F3254
G1 X90.632 Y129.368 E8.44358
G1 X90.632 Y90.632 E9.75475
G1 X129.368 Y90.632 E11.06592
G1 X129.368 Y129.308 E12.37505
G1 X129.775 Y129.775 F7800
;TYPE:External perimeter
G1 F2400
G1 X90.225 Y129.775 E13.71377
G1 X90.225 Y90.225 E15.05249
G1 X129.775 Y90.225 E16.39121
G1 X129.775 Y129.715 E17.7279
G1 X129.379 Y129.774 F7800
;LAYER_CHANGE
;Z:39.3
;HEIGHT:0.200001
G1 Z39.3 F7800
G1 X128.961 Y128.961
;TYPE:Perimeter
G1 F4800
G1 X91.039 Y128.961 E19.01151
G1 X91.039 Y91.039 E20.29512
G1 X128.961 Y91.039 E21.57873
G1 X128.961 Y128.901 E22.86031
G1 X129.368 Y129.368 F7800
G1 F4800
G1 X90.632 Y129.368 E24.17148
G1 X90.632 Y90.632 E25.48265
G1 X129.368 Y90.632 E26.79382
G1 X129.368 Y129.308 E28.10295
G1 X129.775 Y129.775 F7800
;TYPE:External perimeter
G1 F2400
G1 X90.225 Y129.775 E29.44167
G1 X90.225 Y90.225 E30.78039
G1 X129.775 Y90.225 E32.11911
G1 X129.775 Y129.715 E33.4558
G1 X129.379 Y129.774 F7800
G1 X128.17 Y128.839
;TYPE:Internal infill
;WIDTH:0.45
;HEIGHT:0.4
G1 F4800
G1 X128.656 Y128.354 E33.49738
G1 X128.656 Y127.531 E33.54722
G1 X127.531 Y128.656 E33.64357
G1 X126.709 Y128.656 E33.69335
G1 X128.656 Y126.709 E33.8601
G1 X128.656 Y125.886 E33.90994
G1 X125.886 Y128.656 E34.14718
G1 X125.064 Y128.656 E34.19696
G1 X128.656 Y125.064 E34.5046
G1 X128.656 Y124.241 E34.55444
G1 X124.241 Y128.656 E34.93256
G1 X123.419 Y128.656 E34.98234
G1 X128.656 Y123.419 E35.43086
G1 X128.656 Y122.597 E35.48064
G1 X122.597 Y128.656 E35.99956
G1 X121.774 Y128.656 E36.0494
G1 X128.656 Y121.774 E36.63881
G1 X128.656 Y120.952 E36.68859
G1 X120.952 Y128.656 E37.3484
G1 X120.129 Y128.656 E37.39824
G1 X128.656 Y120.129 E38.12853
G1 X128.656 Y119.307 E38.17831
G1 X119.307 Y128.656 E38.979
G1 X118.484 Y128.656 E39.02884
G1 X128.656 Y118.484 E39.90002
G1 X128.656 Y117.662 E39.9498
G1 X117.662 Y128.656 E40.89138
G1 X116.84 Y128.656 E40.94116
G1 X128.656 Y116.84 E41.95314
G1 X128.656 Y116.017 E42.00298
G1 X116.017 Y128.656 E43.08544
G1 X115.195 Y128.656 E43.13522
G1 X128.656 Y115.195 E44.28808
G1 X128.656 Y114.372 E44.33792
G1 X114.372 Y128.656 E45.56127
G1 X113.55 Y128.656 E45.61105
G1 X128.656 Y113.55 E46.9048
G1 X128.656 Y112.728 E46.95458
G1 X112.728 Y128.656 E48.31873
G1 X111.905 Y128.656 E48.36857
G1 X128.656 Y111.905 E49.8032
G1 X128.656 Y111.083 E49.85298
G1 X111.083 Y128.656 E51.35801
G1 X110.26 Y128.656 E51.40785
G1 X128.656 Y110.26 E52.98337
G1 X128.656 Y109.438 E53.03315
G1 X109.438 Y128.656 E54.67907
G1 X108.615 Y128.656 E54.72891
G1 X128.656 Y108.615 E56.44531
G1 X128.656 Y107.793 E56.49509
G1 X107.793 Y128.656 E58.28189
G1 X106.971 Y128.656 E58.33167
G1 X128.656 Y106.971 E60.18887
G1 X128.656 Y106.148 E60.23871
G1 X106.148 Y128.656 E62.1664
G1 X105.326 Y128.656 E62.21618
G1 X128.656 Y105.326 E64.21427
G1 X128.656 Y104.503 E64.26411
G1 X104.503 Y128.656 E66.33269
G1 X103.681 Y128.656 E66.38247
G1 X128.656 Y103.681 E68.52145
G1 X128.656 Y102.858 E68.57129
G1 X102.858 Y128.656 E70.78075
G1 X102.036 Y128.656 E70.83053
G1 X128.656 Y102.036 E73.11039
G1 X128.656 Y101.214 E73.16017
G1 X101.214 Y128.656 E75.51043
G1 X100.391 Y128.656 E75.56027
G1 X128.656 Y100.391 E77.98102
G1 X128.656 Y99.569 E78.0308
G1 X99.569 Y128.656 E80.52195
G1 X98.746 Y128.656 E80.57179
G1 X128.656 Y98.746 E83.13342
G1 X128.656 Y97.924 E83.1832
G1 X97.924 Y128.656 E85.81523
G1 X97.101 Y128.656 E85.86507
G1 X128.656 Y97.101 E88.56759
G1 X128.656 Y96.279 E88.61737
G1 X96.279 Y128.656 E91.39029
G1 X95.457 Y128.656 E91.44007
G1 X128.656 Y95.457 E94.28339
G1 X128.656 Y94.634 E94.33323
G1 X94.634 Y128.656 E97.24703
G1 X93.812 Y128.656 E97.29681
G1 X128.656 Y93.812 E100.28101
G1 X128.656 Y92.989 E100.33085
G1 X92.989 Y128.656 E103.38554
G1 X92.167 Y128.656 E103.43532
G1 X128.656 Y92.167 E106.56041
G1 X128.656 Y91.344 E106.61025
G1 X91.344 Y128.656 E109.80582
G1 X91.344 Y127.833 E109.85566
G1 X127.833 Y91.344 E112.98075
G1 X127.011 Y91.344 E113.03053
G1 X91.344 Y127.011 E116.08522
G1 X91.344 Y126.188 E116.13506
G1 X126.188 Y91.344 E119.11926
G1 X125.366 Y91.344 E119.16904
G1 X91.344 Y125.366 E122.08284
G1 X91.344 Y124.543 E122.13268
G1 X124.543 Y91.344 E124.976
G1 X123.721 Y91.344 E125.02578
G1 X91.344 Y123.721 E127.7987
G1 X91.344 Y122.899 E127.84848
G1 X122.899 Y91.344 E130.551
G1 X122.076 Y91.344 E130.60084
G1 X91.344 Y122.076 E133.23287
G1 X91.344 Y121.254 E133.28265
G1 X121.254 Y91.344 E135.84428
G1 X120.431 Y91.344 E135.89412
G1 X91.344 Y120.431 E138.38527
G1 X91.344 Y119.609 E138.43505
G1 X119.609 Y91.344 E140.8558
G1 X118.786 Y91.344 E140.90564
G1 X91.344 Y118.786 E143.2559
G1 X91.344 Y117.964 E143.30568
G1 X117.964 Y91.344 E145.58554
G1 X117.142 Y91.344 E145.63532
G1 X91.344 Y117.142 E147.84478
G1 X91.344 Y116.319 E147.89462
G1 X116.319 Y91.344 E150.0336
G1 X115.497 Y91.344 E150.08338
M73 Q91 S10
G1 X91.344 Y115.497 E152.15196
M73 P90 R9
G1 X91.344 Y114.674 E152.2018
G1 X114.674 Y91.344 E154.19989
G1 X113.852 Y91.344 E154.24967
G1 X91.344 Y113.852 E156.17736
G1 X91.344 Y113.029 E156.2272
G1 X113.029 Y91.344 E158.0844
G1 X112.207 Y91.344 E158.13418
G1 X91.344 Y112.207 E159.92098
G1 X91.344 Y111.385 E159.97076
G1 X111.385 Y91.344 E161.68716
G1 X110.562 Y91.344 E161.737
G1 X91.344 Y110.562 E163.38292
G1 X91.344 Y109.74 E163.4327
G1 X109.74 Y91.344 E165.00822
G1 X108.917 Y91.344 E165.05806
G1 X91.344 Y108.917 E166.56309
G1 X91.344 Y108.095 E166.61287
M73 Q91 S9
G1 X108.095 Y91.344 E168.0475
G1 X107.272 Y91.344 E168.09734
G1 X91.344 Y107.272 E169.46149
G1 X91.344 Y106.45 E169.51127
G1 X106.45 Y91.344 E170.80502
G1 X105.628 Y91.344 E170.8548
G1 X91.344 Y105.628 E172.07815
G1 X91.344 Y104.805 E172.12799
G1 X104.805 Y91.344 E173.28085
G1 X103.983 Y91.344 E173.33063
G1 X91.344 Y103.983 E174.41309
G1 X91.344 Y103.16 E174.46293
G1 X103.16 Y91.344 E175.47491
G1 X102.338 Y91.344 E175.52469
G1 X91.344 Y102.338 E176.46627
G1 X91.344 Y101.516 E176.51605
G1 X101.516 Y91.344 E177.38723
G1 X100.693 Y91.344 E177.43707
G1 X91.344 Y100.693 E178.23776
G1 X91.344 Y99.871 E178.28754
G1 X99.871 Y91.344 E179.01783
G1 X99.048 Y91.344 E179.06767
G1 X91.344 Y99.048 E179.72748
G1 X91.344 Y98.226 E179.77726
G1 X98.226 Y91.344 E180.36667
G1 X97.403 Y91.344 E180.41651
G1 X91.344 Y97.403 E180.93543
G1 X91.344 Y96.581 E180.98521
G1 X96.581 Y91.344 E181.43373
G1 X95.759 Y91.344 E181.48351
G1 X91.344 Y95.759 E181.86163
G1 X91.344 Y94.936 E181.91147
G1 X94.936 Y91.344 E182.21911
G1 X94.114 Y91.344 E182.26889
G1 X91.344 Y94.114 E182.50613
G1 X91.344 Y93.291 E182.55597
G1 X93.291 Y91.344 E182.72272
G1 X92.469 Y91.344 E182.7725
G1 X91.344 Y92.469 E182.86885
G1 X91.344 Y91.646 E182.91869
G1 X91.83 Y91.161 E182.96027
;LAYER_CHANGE
;Z:39.5
;HEIGHT:0.200001
G1 E180.96027 F2400
G92 E0
G1 Z39.5 F7800
G1 X128.961 Y128.961
G1 E2 F2400
M73 P91 R9
;TYPE:Perimeter
;WIDTH:0.449999
G1 F3323
G1 X91.039 Y128.961 E3.28361
G1 X91.039 Y91.039 E4.56722
G1 X128.961 Y91.039 E5.85083
G1 X128.961 Y128.901 E7.13241
G1 X129.368 Y129.368 F7800
G1 F3323
G1 X90.632 Y129.368 E8.44358
G1 X90.632 Y90.632 E9.75475
G1 X129.368 Y90.632 E11.06592
G1 X129.368 Y129.308 E12.37505
G1 X129.775 Y129.775 F7800
;TYPE:External perimeter
G1 F2400
G1 X90.225 Y129.775 E13.71377
G1 X90.225 Y90.225 E15.05249
G1 X129.775 Y90.225 E16.39121
G1 X129.775 Y129.715 E17.7279
G1 X129.379 Y129.774 F7800
;LAYER_CHANGE
;Z:39.7
;HEIGHT:0.200001
G1 Z39.7 F7800
G1 X128.961 Y128.961
;TYPE:Perimeter
G1 F4800
G1 X91.039 Y128.961 E19.01151
G1 X91.039 Y91.039 E20.29512
G1 X128.961 Y91.039 E21.57873
G1 X128.961 Y128.901 E22.86031
G1 X129.368 Y129.368 F7800
G1 F4800
G1 X90.632 Y129.368 E24.17148
G1 X90.632 Y90.632 E25.48265
G1 X129.368 Y90.632 E26.79382
G1 X129.368 Y129.308 E28.10295
G1 X129.775 Y129.775 F7800
;TYPE:External perimeter
G1 F2400
G1 X90.225 Y129.775 E29.44167
G1 X90.225 Y90.225 E30.78039
G1 X129.775 Y90.225 E32.11911
G1 X129.775 Y129.715 E33.4558
G1 X129.379 Y129.774 F7800
G1 E31.4558 F2400
G92 E0
G1 X92.245 Y128.432 F7800
G1 E2 F2400
;TYPE:Internal infill
;WIDTH:0.45
;HEIGHT:0.4
G1 F4800
G1 X91.752 Y127.938 E2.04227
G1 X91.752 Y127.116 E2.09205
G1 X92.884 Y128.248 E2.189
G1 X93.707 Y128.248 E2.23884
G1 X91.752 Y126.293 E2.40628
G1 X91.752 Y125.471 E2.45606
G1 X94.529 Y128.248 E2.6939
G1 X95.351 Y128.248 E2.74368
G1 X91.752 Y124.649 E3.05192
G1 X91.752 Y123.826 E3.10176
G1 X96.174 Y128.248 E3.48048
G1 X96.996 Y128.248 E3.53026
G1 X91.752 Y123.004 E3.97938
G1 X91.752 Y122.181 E4.02922
G1 X97.819 Y128.248 E4.54883
G1 X98.641 Y128.248 E4.59861
G1 X91.752 Y121.359 E5.18862
G1 X91.752 Y120.536 E5.23846
G1 X99.464 Y128.248 E5.89895
G1 X100.286 Y128.248 E5.94873
G1 X91.752 Y119.714 E6.67962
G1 X91.752 Y118.892 E6.7294
G1 X101.108 Y128.248 E7.53069
G1 X101.931 Y128.248 E7.58053
G1 X91.752 Y118.069 E8.45231
G1 X91.752 Y117.247 E8.50209
G1 X102.753 Y128.248 E9.44427
G1 X103.576 Y128.248 E9.49411
G1 X91.752 Y116.424 E10.50677
G1 X91.752 Y115.602 E10.55655
G1 X104.398 Y128.248 E11.63961
G1 X105.221 Y128.248 E11.68945
G1 X91.752 Y114.779 E12.843
G1 X91.752 Y113.957 E12.89278
G1 X106.043 Y128.248 E14.11673
G1 X106.865 Y128.248 E14.16651
G1 X91.752 Y113.135 E15.46086
G1 X91.752 Y112.312 E15.5107
G1 X107.688 Y128.248 E16.87553
G1 X108.51 Y128.248 E16.92531
G1 X91.752 Y111.49 E18.36054
G1 X91.752 Y110.667 E18.41038
G1 X109.333 Y128.248 E19.9161
G1 X110.155 Y128.248 E19.96588
G1 X91.752 Y109.845 E21.542
G1 X91.752 Y109.022 E21.59184
G1 X110.978 Y128.248 E23.23844
G1 X111.8 Y128.248 E23.28822
G1 X91.752 Y108.2 E25.00522
G1 X91.752 Y107.378 E25.055
G1 X112.622 Y128.248 E26.8424
G1 X113.445 Y128.248 E26.89224
G1 X91.752 Y106.555 E28.75013
G1 X91.752 Y105.733 E28.79991
G1 X114.267 Y128.248 E30.7282
G1 X115.09 Y128.248 E30.77804
G1 X91.752 Y104.91 E32.77682
G1 X91.752 Y104.088 E32.8266
G1 X115.912 Y128.248 E34.89578
G1 X116.735 Y128.248 E34.94562
G1 X91.752 Y103.266 E37.08524
G1 X91.752 Y102.443 E37.13508
G1 X117.557 Y128.248 E39.34514
G1 X118.379 Y128.248 E39.39492
G1 X91.752 Y101.621 E41.67538
G1 X91.752 Y100.798 E41.72522
G1 X119.202 Y128.248 E44.07617
G1 X120.024 Y128.248 E44.12595
G1 X91.752 Y99.976 E46.5473
G1 X91.752 Y99.153 E46.59714
G1 X120.847 Y128.248 E49.08897
G1 X121.669 Y128.248 E49.13875
G1 X91.752 Y98.331 E51.70098
G1 X91.752 Y97.509 E51.75076
G1 X122.491 Y128.248 E54.38339
G1 X123.314 Y128.248 E54.43323
G1 X91.752 Y96.686 E57.13635
G1 X91.752 Y95.864 E57.18613
G1 X124.136 Y128.248 E59.95965
G1 X124.959 Y128.248 E60.00949
G1 X91.752 Y95.041 E62.85349
G1 X91.752 Y94.219 E62.90327
G1 X125.781 Y128.248 E65.81767
G1 X126.604 Y128.248 E65.86751
G1 X91.752 Y93.396 E68.8524
G1 X91.752 Y92.574 E68.90218
G1 X127.426 Y128.248 E71.95747
G1 X128.248 Y128.248 E72.00725
G1 X91.752 Y91.752 E75.13294
G1 X92.574 Y91.752 E75.18272
G1 X128.248 Y127.426 E78.23801
G1 X128.248 Y126.604 E78.28779
G1 X93.396 Y91.752 E81.27268
G1 X94.219 Y91.752 E81.32252
G1 X128.248 Y125.781 E84.23692
G1 X128.248 Y124.959 E84.2867
G1 X95.041 Y91.752 E87.1307
G1 X95.864 Y91.752 E87.18054
G1 X128.248 Y124.136 E89.95406
G1 X128.248 Y123.314 E90.00384
G1 X96.686 Y91.752 E92.70696
G1 X97.509 Y91.752 E92.7568
G1 X128.248 Y122.491 E95.38943
G1 X128.248 Y121.669 E95.43921
G1 X98.331 Y91.752 E98.00144
G1 X99.153 Y91.752 E98.05122
G1 X128.248 Y120.847 E100.54305
G1 X128.248 Y120.024 E100.59289
G1 X99.976 Y91.752 E103.01424
G1 X100.798 Y91.752 E103.06402
G1 X128.248 Y119.202 E105.41497
G1 X128.248 Y118.379 E105.46481
G1 X101.621 Y91.752 E107.74527
G1 X102.443 Y91.752 E107.79505
G1 X128.248 Y117.557 E110.00511
G1 X128.248 Y116.735 E110.05489
G1 X103.266 Y91.752 E112.19451
G1 X104.088 Y91.752 E112.24429
G1 X128.248 Y115.912 E114.31347
G1 X128.248 Y115.09 E114.36325
G1 X104.91 Y91.752 E116.36203
G1 X105.733 Y91.752 E116.41187
G1 X128.248 Y114.267 E118.34016
G1 X128.248 Y113.445 E118.38994
G1 X106.555 Y91.752 E120.24783
G1 X107.378 Y91.752 E120.29767
G1 X128.248 Y112.622 E122.08507
G1 X128.248 Y111.8 E122.13485
G1 X108.2 Y91.752 E123.85185
G1 X109.022 Y91.752 E123.90163
G1 X128.248 Y110.978 E125.54823
G1 X128.248 Y110.155 E125.59807
G1 X109.845 Y91.752 E127.17419
G1 X110.667 Y91.752 E127.22397
G1 X128.248 Y109.333 E128.72969
G1 X128.248 Y108.51 E128.77953
G1 X111.49 Y91.752 E130.21476
G1 X112.312 Y91.752 E130.26454
G1 X128.248 Y107.688 E131.62937
G1 X128.248 Y106.865 E131.67921
G1 X113.135 Y91.752 E132.97356
G1 X113.957 Y91.752 E133.02334
G1 X128.248 Y106.043 E134.24729
G1 X128.248 Y105.221 E134.29707
G1 X114.779 Y91.752 E135.45062
G1 X115.602 Y91.752 E135.50046
M73 P91 R8
G1 X128.248 Y104.398 E136.58352
G1 X128.248 Y103.576 E136.6333
G1 X116.424 Y91.752 E137.64596
G1 X117.247 Y91.752 E137.6958
G1 X128.248 Y102.753 E138.63798
G1 X128.248 Y101.931 E138.68776
G1 X118.069 Y91.752 E139.55954
G1 X118.892 Y91.752 E139.60938
G1 X128.248 Y101.108 E140.41067
G1 X128.248 Y100.286 E140.46045
G1 X119.714 Y91.752 E141.19134
G1 X120.536 Y91.752 E141.24112
G1 X128.248 Y99.464 E141.90161
G1 X128.248 Y98.641 E141.95145
G1 X121.359 Y91.752 E142.54146
G1 X122.181 Y91.752 E142.59124
G1 X128.248 Y97.819 E143.11085
G1 X128.248 Y96.996 E143.16069
M73 Q91 S8
G1 X123.004 Y91.752 E143.60981
G1 X123.826 Y91.752 E143.65959
G1 X128.248 Y96.174 E144.03831
G1 X128.248 Y95.351 E144.08815
G1 X124.649 Y91.752 E144.39639
G1 X125.471 Y91.752 E144.44617
G1 X128.248 Y94.529 E144.68401
G1 X128.248 Y93.707 E144.73379
G1 X126.293 Y91.752 E144.90123
G1 X127.116 Y91.752 E144.95107
G1 X128.248 Y92.884 E145.04802
G1 X128.248 Y92.062 E145.0978
G1 X127.755 Y91.568 E145.14007
G1 E143.14007 F2400
G92 E0
G1 X91.344 Y128.452 F7800
G1 E2 F2400
;TYPE:Solid infill
;WIDTH:0.450008
;HEIGHT:0.2
G1 F1200
G1 X91.344 Y91.548 E3.24918
;WIDTH:0.484931
G1 X91.362 Y91.464 E3.25234
M73 Q92 S8
;WIDTH:0.519854
G1 X91.379 Y91.379 E3.25578
G1 X91.464 Y91.362 E3.25922
;WIDTH:0.484931
G1 X91.548 Y91.344 E3.26238
;WIDTH:0.450008
G1 X128.452 Y91.344 E4.51156
;WIDTH:0.484932
G1 X128.536 Y91.362 E4.51472
;WIDTH:0.519856
G1 X128.621 Y91.379 E4.51816
G1 X128.638 Y91.449 E4.52102
;WIDTH:0.484932
G1 X128.656 Y91.519 E4.52368
;WIDTH:0.450008
G1 X128.656 Y128.452 E5.77384
;WIDTH:0.484931
G1 X128.638 Y128.536 E5.777
;WIDTH:0.519854
G1 X128.621 Y128.621 E5.78044
G1 X128.536 Y128.638 E5.78388
;WIDTH:0.484931
G1 X128.452 Y128.656 E5.78704
;WIDTH:0.450008
G1 X91.548 Y128.656 E7.03622
;WIDTH:0.478577
G1 X91.479 Y128.641 E7.03878
;WIDTH:0.507145
G1 X91.41 Y128.627 E7.0415
;LAYER_CHANGE
;Z:39.9
;HEIGHT:0.200001
G1 E5.0415 F2400
G92 E0
G1 Z39.9 F7800
G1 X128.961 Y128.961
G1 E2 F2400
;TYPE:Perimeter
;WIDTH:0.449999
G1 F4800
G1 X91.039 Y128.961 E3.28361
G1 X91.039 Y91.039 E4.56722
G1 X128.961 Y91.039 E5.85083
G1 X128.961 Y128.901 E7.13241
G1 X129.368 Y129.368 F7800
G1 F4800
G1 X90.632 Y129.368 E8.44358
G1 X90.632 Y90.632 E9.75475
G1 X129.368 Y90.632 E11.06592
G1 X129.368 Y129.308 E12.37505
M73 P92 R8
G1 X129.775 Y129.775 F7800
;TYPE:External perimeter
G1 F2400
G1 X90.225 Y129.775 E13.71377
G1 X90.225 Y90.225 E15.05249
G1 X129.775 Y90.225 E16.39121
G1 X129.775 Y129.715 E17.7279
G1 X129.379 Y129.774 F7800
G1 X127.923 Y128.837
;TYPE:Bridge infill
;WIDTH:0.402046
;HEIGHT:0.4
M106 S89.25
G1 F3600
G1 X128.634 Y128.125 E17.78101
G1 X128.634 Y127.486 E17.81474
G1 X127.486 Y128.634 E17.90043
G1 X126.846 Y128.634 E17.93421
G1 X128.634 Y126.846 E18.06767
G1 X128.634 Y126.207 E18.1014
G1 X126.207 Y128.634 E18.28256
G1 X125.568 Y128.634 E18.31629
G1 X128.634 Y125.568 E18.54515
G1 X128.634 Y124.929 E18.57888
G1 X124.929 Y128.634 E18.85543
G1 X124.289 Y128.634 E18.88921
G1 X128.634 Y124.289 E19.21353
G1 X128.634 Y123.65 E19.24726
G1 X123.65 Y128.634 E19.61928
G1 X123.011 Y128.634 E19.65301
G1 X128.634 Y123.011 E20.07273
G1 X128.634 Y122.371 E20.10651
G1 X122.371 Y128.634 E20.574
G1 X121.732 Y128.634 E20.60773
G1 X128.634 Y121.732 E21.12292
G1 X128.634 Y121.093 E21.15665
G1 X121.093 Y128.634 E21.71953
G1 X120.454 Y128.634 E21.75326
G1 X128.634 Y120.454 E22.36384
G1 X128.634 Y119.814 E22.39762
G1 X119.814 Y128.634 E23.05597
G1 X119.175 Y128.634 E23.0897
G1 X128.634 Y119.175 E23.79575
G1 X128.634 Y118.536 E23.82948
G1 X118.536 Y128.634 E24.58323
G1 X117.896 Y128.634 E24.61701
G1 X128.634 Y117.896 E25.41853
G1 X128.634 Y117.257 E25.45226
G1 X117.257 Y128.634 E26.30148
G1 X116.618 Y128.634 E26.33521
G1 X128.634 Y116.618 E27.23212
G1 X128.634 Y115.979 E27.26585
G1 X115.979 Y128.634 E28.21046
G1 X115.339 Y128.634 E28.24424
G1 X128.634 Y115.339 E29.23662
G1 X128.634 Y114.7 E29.27035
G1 X114.7 Y128.634 E30.31043
G1 X114.061 Y128.634 E30.34416
G1 X128.634 Y114.061 E31.43194
G1 X128.634 Y113.421 E31.46572
G1 X113.421 Y128.634 E32.60127
G1 X112.782 Y128.634 E32.635
G1 X128.634 Y112.782 E33.81824
G1 X128.634 Y112.143 E33.85197
G1 X112.143 Y128.634 E35.08291
G1 X111.504 Y128.634 E35.11664
G1 X128.634 Y111.504 E36.39528
G1 X128.634 Y110.864 E36.42906
G1 X110.864 Y128.634 E37.75547
G1 X110.225 Y128.634 E37.7892
G1 X128.634 Y110.225 E39.16331
G1 X128.634 Y109.586 E39.19704
G1 X109.586 Y128.634 E40.61884
G1 X108.946 Y128.634 E40.65262
G1 X128.634 Y108.946 E42.1222
G1 X128.634 Y108.307 E42.15593
G1 X108.307 Y128.634 E43.6732
G1 X107.668 Y128.634 E43.70693
G1 X128.634 Y107.668 E45.2719
G1 X128.634 Y107.029 E45.30563
G1 X107.029 Y128.634 E46.9183
G1 X106.389 Y128.634 E46.95208
G1 X128.634 Y106.389 E48.61252
G1 X128.634 Y105.75 E48.64625
G1 X105.75 Y128.634 E50.35439
G1 X105.111 Y128.634 E50.38812
G1 X128.634 Y105.111 E52.14395
G1 X128.634 Y104.471 E52.17773
G1 X104.471 Y128.634 E53.98133
G1 X103.832 Y128.634 E54.01506
G1 X128.634 Y103.832 E55.86636
G1 X128.634 Y103.193 E55.90009
G1 X103.193 Y128.634 E57.79909
G1 X102.553 Y128.634 E57.83287
G1 X128.634 Y102.553 E59.77964
G1 X128.634 Y101.914 E59.81337
G1 X101.914 Y128.634 E61.80784
G1 X101.275 Y128.634 E61.84157
G1 X128.634 Y101.275 E63.88373
G1 X128.634 Y100.636 E63.91746
G1 X100.636 Y128.634 E66.00732
G1 X99.996 Y128.634 E66.0411
G1 X128.634 Y99.996 E68.17873
G1 X128.634 Y99.357 E68.21246
G1 X99.357 Y128.634 E70.39779
G1 X98.718 Y128.634 E70.43152
G1 X128.634 Y98.718 E72.66455
G1 X128.634 Y98.078 E72.69833
G1 X98.078 Y128.634 E74.97913
G1 X97.439 Y128.634 E75.01286
G1 X128.634 Y97.439 E77.34136
G1 X128.634 Y96.8 E77.37509
G1 X96.8 Y128.634 E79.75128
G1 X96.161 Y128.634 E79.78501
G1 X128.634 Y96.161 E82.2089
G1 X128.634 Y95.521 E82.24268
G1 X95.521 Y128.634 E84.71434
G1 X94.882 Y128.634 E84.74807
G1 X128.634 Y94.882 E87.26743
G1 X128.634 Y94.243 E87.30116
G1 X94.243 Y128.634 E89.86822
G1 X93.603 Y128.634 E89.902
G1 X128.634 Y93.603 E92.51683
G1 X128.634 Y92.964 E92.55056
G1 X92.964 Y128.634 E95.21308
G1 X92.325 Y128.634 E95.24681
G1 X128.634 Y92.325 E97.95703
G1 X128.634 Y91.686 E97.99076
G1 X91.686 Y128.634 E100.74868
G1 X91.366 Y128.634 E100.76557
G1 X91.366 Y128.314 E100.78246
G1 X128.314 Y91.366 E103.54038
G1 X127.675 Y91.366 E103.57411
G1 X91.366 Y127.675 E106.28433
G1 X91.366 Y127.036 E106.31806
G1 X127.036 Y91.366 E108.98058
G1 X126.397 Y91.366 E109.01431
G1 X91.366 Y126.397 E111.62914
G1 X91.366 Y125.757 E111.66292
G1 X125.757 Y91.366 E114.22998
G1 X125.118 Y91.366 E114.26371
G1 X91.366 Y125.118 E116.78307
G1 X91.366 Y124.479 E116.8168
G1 X124.479 Y91.366 E119.28846
G1 X123.839 Y91.366 E119.32224
G1 X91.366 Y123.839 E121.74613
G1 X91.366 Y123.2 E121.77986
G1 X123.2 Y91.366 E124.15605
G1 X122.561 Y91.366 E124.18978
G1 X91.366 Y122.561 E126.51828
G1 X91.366 Y121.922 E126.55201
G1 X121.922 Y91.366 E128.83281
G1 X121.282 Y91.366 E128.86659
G1 X91.366 Y121.282 E131.09962
G1 X91.366 Y120.643 E131.13335
G1 X120.643 Y91.366 E133.31868
G1 X120.004 Y91.366 E133.35241
G1 X91.366 Y120.004 E135.49004
G1 X91.366 Y119.364 E135.52382
M73 P92 R7
G1 X119.364 Y91.366 E137.61368
G1 X118.725 Y91.366 E137.64741
G1 X91.366 Y118.725 E139.68957
G1 X91.366 Y118.086 E139.7233
M73 Q92 S7
G1 X118.086 Y91.366 E141.71777
G1 X117.446 Y91.366 E141.75155
G1 X91.366 Y117.446 E143.69825
G1 X91.366 Y116.807 E143.73198
G1 X116.807 Y91.366 E145.63098
G1 X116.168 Y91.366 E145.66471
G1 X91.366 Y116.168 E147.51601
G1 X91.366 Y115.529 E147.54974
G1 X115.529 Y91.366 E149.35334
G1 X114.889 Y91.366 E149.38712
G1 X91.366 Y114.889 E151.14295
G1 X91.366 Y114.25 E151.17668
G1 X114.25 Y91.366 E152.88482
G1 X113.611 Y91.366 E152.91855
G1 X91.366 Y113.611 E154.57899
G1 X91.366 Y112.971 E154.61277
G1 X112.971 Y91.366 E156.22544
G1 X112.332 Y91.366 E156.25917
G1 X91.366 Y112.332 E157.82414
G1 X91.366 Y111.693 E157.85787
G1 X111.693 Y91.366 E159.37514
G1 X111.054 Y91.366 E159.40887
G1 X91.366 Y111.054 E160.87845
G1 X91.366 Y110.414 E160.91223
G1 X110.414 Y91.366 E162.33403
G1 X109.775 Y91.366 E162.36776
G1 X91.366 Y109.775 E163.74187
G1 X91.366 Y109.136 E163.7756
G1 X109.136 Y91.366 E165.10201
G1 X108.496 Y91.366 E165.13579
G1 X91.366 Y108.496 E166.41443
G1 X91.366 Y107.857 E166.44816
G1 X107.857 Y91.366 E167.6791
G1 X107.218 Y91.366 E167.71283
M73 Q93 S7
G1 X91.366 Y107.218 E168.89607
G1 X91.366 Y106.579 E168.9298
G1 X106.579 Y91.366 E170.06535
G1 X105.939 Y91.366 E170.09913
G1 X91.366 Y105.939 E171.18691
G1 X91.366 Y105.3 E171.22064
G1 X105.3 Y91.366 E172.26072
G1 X104.661 Y91.366 E172.29445
G1 X91.366 Y104.661 E173.28683
G1 X91.366 Y104.021 E173.32061
G1 X104.021 Y91.366 E174.26522
G1 X103.382 Y91.366 E174.29895
G1 X91.366 Y103.382 E175.19586
G1 X91.366 Y102.743 E175.22959
G1 X102.743 Y91.366 E176.07881
G1 X102.104 Y91.366 E176.11254
G1 X91.366 Y102.104 E176.91406
G1 X91.366 Y101.464 E176.94784
G1 X101.464 Y91.366 E177.70159
G1 X100.825 Y91.366 E177.73532
G1 X91.366 Y100.825 E178.44137
G1 X91.366 Y100.186 E178.4751
G1 X100.186 Y91.366 E179.13345
G1 X99.546 Y91.366 E179.16723
G1 X91.366 Y99.546 E179.77781
G1 X91.366 Y98.907 E179.81154
G1 X98.907 Y91.366 E180.37442
G1 X98.268 Y91.366 E180.40815
G1 X91.366 Y98.268 E180.92334
G1 X91.366 Y97.629 E180.95707
G1 X97.629 Y91.366 E181.42456
G1 X96.989 Y91.366 E181.45834
G1 X91.366 Y96.989 E181.87806
G1 X91.366 Y96.35 E181.91179
G1 X96.35 Y91.366 E182.28381
G1 X95.711 Y91.366 E182.31754
G1 X91.366 Y95.711 E182.64186
G1 X91.366 Y95.071 E182.67564
G1 X95.071 Y91.366 E182.95219
G1 X94.432 Y91.366 E182.98592
G1 X91.366 Y94.432 E183.21478
G1 X91.366 Y93.793 E183.24851
G1 X93.793 Y91.366 E183.42967
G1 X93.153 Y91.366 E183.46345
G1 X91.366 Y93.153 E183.59684
G1 X91.366 Y92.514 E183.63057
G1 X92.514 Y91.366 E183.71626
G1 X91.875 Y91.366 E183.74999
G1 X91.163 Y92.077 E183.8031
M106 S38.25
;LAYER_CHANGE
;Z:40.1
;HEIGHT:0.199997
G1 E181.8031 F2400
G92 E0
G1 Z40.1 F7800
G1 X128.961 Y128.961
G1 E2 F2400
;TYPE:Perimeter
;WIDTH:0.449999
G1 F4800
G1 X91.039 Y128.961 E3.28361
G1 X91.039 Y91.039 E4.56722
G1 X128.961 Y91.039 E5.85083
G1 X128.961 Y128.901 E7.13241
G1 X129.368 Y129.368 F7800
G1 F4800
G1 X90.632 Y129.368 E8.44358
G1 X90.632 Y90.632 E9.75475
M73 P93 R7
G1 X129.368 Y90.632 E11.06592
G1 X129.368 Y129.308 E12.37505
G1 X129.775 Y129.775 F7800
;TYPE:External perimeter
G1 F2400
G1 X90.225 Y129.775 E13.71377
G1 X90.225 Y90.225 E15.05249
G1 X129.775 Y90.225 E16.39121
G1 X129.775 Y129.715 E17.7279
G1 X129.379 Y129.774 F7800
G1 E15.7279 F2400
G92 E0
G1 X91.377 Y128.545 F7800
G1 E2 F2400
;TYPE:Solid infill
;WIDTH:0.548766
G1 F1200
G1 X91.333 Y128.59 E2.00265
G1 X91.349 Y128.651 E2.0053
G1 X91.41 Y128.667 E2.00795
G1 X91.455 Y128.623 E2.0106
G1 X91.439 Y128.561 E2.01329
G1 X92.234 Y128.788 F7800
;WIDTH:0.38292
G1 F1200
G1 X92.215 Y128.859 E2.01537
G1 X92.286 Y128.84 E2.01745
G1 X92.275 Y128.799 E2.01865
;WIDTH:0.41646
G1 X92.182 Y128.727 E2.0223
;WIDTH:0.449999
G1 X92.089 Y128.656 E2.02626
G1 X91.344 Y127.911 E2.06192
G1 X91.273 Y127.818 E2.06588
;WIDTH:0.41646
G1 X91.201 Y127.725 E2.06953
;WIDTH:0.38292
G1 X91.212 Y127.766 E2.07073
G1 X91.141 Y127.785 E2.07281
G1 X91.16 Y127.714 E2.07489
;WIDTH:0.449999
G1 X91.344 Y127.336 E2.08912
G1 X92.664 Y128.656 E2.15231
G1 X93.24 Y128.656 E2.17181
G1 X91.344 Y126.76 E2.26257
G1 X91.344 Y126.184 E2.28207
G1 X93.816 Y128.656 E2.4004
G1 X94.392 Y128.656 E2.4199
G1 X91.344 Y125.608 E2.56581
G1 X91.344 Y125.033 E2.58527
G1 X94.967 Y128.656 E2.7587
G1 X95.543 Y128.656 E2.7782
G1 X91.344 Y124.457 E2.9792
G1 X91.344 Y123.881 E2.9987
G1 X96.119 Y128.656 E3.22728
G1 X96.694 Y128.656 E3.24674
G1 X91.344 Y123.306 E3.50284
G1 X91.344 Y122.73 E3.52234
G1 X97.27 Y128.656 E3.80601
G1 X97.846 Y128.656 E3.82551
G1 X91.344 Y122.154 E4.13676
G1 X91.344 Y121.579 E4.15622
G1 X98.421 Y128.656 E4.49499
G1 X98.997 Y128.656 E4.51449
G1 X91.344 Y121.003 E4.88083
G1 X91.344 Y120.427 E4.90033
G1 X99.573 Y128.656 E5.29425
G1 X100.149 Y128.656 E5.31375
G1 X91.344 Y119.851 E5.73524
G1 X91.344 Y119.276 E5.7547
G1 X100.724 Y128.656 E6.20371
G1 X101.3 Y128.656 E6.22321
G1 X91.344 Y118.7 E6.6998
G1 X91.344 Y118.124 E6.7193
G1 X101.876 Y128.656 E7.22346
G1 X102.451 Y128.656 E7.24292
G1 X91.344 Y117.549 E7.77461
G1 X91.344 Y116.973 E7.79411
G1 X103.027 Y128.656 E8.35337
G1 X103.603 Y128.656 E8.37287
G1 X91.344 Y116.397 E8.9597
G1 X91.344 Y115.822 E8.97916
G1 X104.178 Y128.656 E9.59352
G1 X104.754 Y128.656 E9.61302
G1 X91.344 Y115.246 E10.25495
G1 X91.344 Y114.67 E10.27445
G1 X105.33 Y128.656 E10.94395
G1 X105.906 Y128.656 E10.96345
G1 X91.344 Y114.095 E11.6605
G1 X91.344 Y113.519 E11.68
G1 X106.481 Y128.656 E12.4046
G1 X107.057 Y128.656 E12.4241
G1 X91.344 Y112.943 E13.17627
G1 X91.344 Y112.367 E13.19577
G1 X107.633 Y128.656 E13.97551
G1 X108.208 Y128.656 E13.99497
G1 X91.344 Y111.792 E14.80224
G1 X91.344 Y111.216 E14.82174
G1 X108.784 Y128.656 E15.65658
G1 X109.36 Y128.656 E15.67608
G1 X91.344 Y110.64 E16.53849
G1 X91.344 Y110.065 E16.55795
G1 X109.935 Y128.656 E17.44789
G1 X110.511 Y128.656 E17.46739
G1 X91.344 Y109.489 E18.3849
G1 X91.344 Y108.913 E18.4044
G1 X111.087 Y128.656 E19.34949
G1 X111.662 Y128.656 E19.36895
G1 X91.344 Y108.338 E20.34156
G1 X91.344 Y107.762 E20.36106
G1 X112.238 Y128.656 E21.36124
G1 X112.814 Y128.656 E21.38074
G1 X91.344 Y107.186 E22.4085
G1 X91.344 Y106.61 E22.428
G1 X113.39 Y128.656 E23.48333
G1 X113.965 Y128.656 E23.50279
G1 X91.344 Y106.035 E24.58564
G1 X91.344 Y105.459 E24.60514
M73 P93 R6
M73 Q93 S6
G1 X114.541 Y128.656 E25.71557
G1 X115.117 Y128.656 E25.73507
G1 X91.344 Y104.883 E26.87307
G1 X91.344 Y104.308 E26.89253
G1 X115.692 Y128.656 E28.05805
G1 X116.268 Y128.656 E28.07755
G1 X91.344 Y103.732 E29.27065
G1 X91.344 Y103.156 E29.29015
G1 X116.844 Y128.656 E30.51082
G1 X117.419 Y128.656 E30.53028
G1 X91.344 Y102.581 E31.77847
G1 X91.344 Y102.005 E31.79797
G1 X117.995 Y128.656 E33.07374
G1 X118.571 Y128.656 E33.09324
G1 X91.344 Y101.429 E34.39658
G1 X91.344 Y100.853 E34.41608
G1 X119.147 Y128.656 E35.74699
G1 X119.722 Y128.656 E35.76645
G1 X91.344 Y100.278 E37.12489
G1 X91.344 Y99.702 E37.14439
M73 Q94 S6
G1 X120.298 Y128.656 E38.5304
G1 X120.874 Y128.656 E38.5499
G1 X91.344 Y99.126 E39.96348
G1 X91.344 Y98.551 E39.98294
G1 X121.449 Y128.656 E41.42405
G1 X122.025 Y128.656 E41.44355
G1 X91.344 Y97.975 E42.91223
G1 X91.344 Y97.399 E42.93173
M73 P94 R6
G1 X122.601 Y128.656 E44.42798
G1 X123.176 Y128.656 E44.44744
G1 X91.344 Y96.824 E45.97122
G1 X91.344 Y96.248 E45.99072
G1 X123.752 Y128.656 E47.54207
G1 X124.328 Y128.656 E47.56157
G1 X91.344 Y95.672 E49.14049
G1 X91.344 Y95.097 E49.15995
G1 X124.903 Y128.656 E50.7664
G1 X125.479 Y128.656 E50.7859
G1 X91.344 Y94.521 E52.41992
G1 X91.344 Y93.945 E52.43942
G1 X126.055 Y128.656 E54.10101
G1 X126.631 Y128.656 E54.12051
G1 X91.344 Y93.369 E55.80968
G1 X91.344 Y92.794 E55.82914
G1 X127.206 Y128.656 E57.54583
G1 X127.782 Y128.656 E57.56533
G1 X91.344 Y92.218 E59.30959
G1 X91.344 Y91.642 E59.32909
G1 X128.358 Y128.656 E61.10093
G1 X128.543 Y128.677 E61.10723
;WIDTH:0.41646
G1 X128.729 Y128.699 E61.11305
;WIDTH:0.38292
G1 X128.71 Y128.77 E61.11513
G1 X128.781 Y128.751 E61.11721
G1 X128.77 Y128.71 E61.11841
;WIDTH:0.449999
G1 X128.656 Y128.378 E61.13029
G1 X91.622 Y91.344 E62.90308
G1 X91.456 Y91.287 E62.90902
;WIDTH:0.41646
G1 X91.29 Y91.23 E62.91447
;WIDTH:0.38292
G1 X91.301 Y91.271 E62.91567
G1 X91.23 Y91.29 E62.91775
G1 X91.249 Y91.219 E62.91983
G1 X92.198 Y91.344 F7800
;WIDTH:0.449999
G1 F1200
G1 X128.656 Y127.802 E64.66505
G1 X128.656 Y127.226 E64.68455
G1 X92.774 Y91.344 E66.4022
G1 X93.349 Y91.344 E66.42166
M73 P94 R5
M73 Q94 S5
G1 X128.656 Y126.651 E68.11178
G1 X128.656 Y126.075 E68.13128
G1 X93.925 Y91.344 E69.79383
G1 X94.501 Y91.344 E69.81333
G1 X128.656 Y125.499 E71.44831
G1 X128.656 Y124.924 E71.46777
G1 X95.076 Y91.344 E73.07522
G1 X95.652 Y91.344 E73.09472
G1 X128.656 Y124.348 E74.6746
G1 X128.656 Y123.772 E74.6941
G1 X96.228 Y91.344 E76.24641
G1 X96.804 Y91.344 E76.26591
G1 X128.656 Y123.196 E77.79065
G1 X128.656 Y122.621 E77.81011
G1 X97.379 Y91.344 E79.30732
G1 X97.955 Y91.344 E79.32682
G1 X128.656 Y122.045 E80.79646
G1 X128.656 Y121.469 E80.81596
G1 X98.531 Y91.344 E82.25802
G1 X99.106 Y91.344 E82.27748
M73 Q95 S5
G1 X128.656 Y120.894 E83.69202
G1 X128.656 Y120.318 E83.71152
G1 X99.682 Y91.344 E85.09849
G1 X100.258 Y91.344 E85.11799
G1 X128.656 Y119.742 E86.47738
G1 X128.656 Y119.167 E86.49684
M73 P95 R5
G1 X100.833 Y91.344 E87.82871
G1 X101.409 Y91.344 E87.84821
G1 X128.656 Y118.591 E89.15251
G1 X128.656 Y118.015 E89.17201
G1 X101.985 Y91.344 E90.44873
G1 X102.561 Y91.344 E90.46823
G1 X128.656 Y117.439 E91.71738
G1 X128.656 Y116.864 E91.73684
G1 X103.136 Y91.344 E92.95847
G1 X103.712 Y91.344 E92.97797
G1 X128.656 Y116.288 E94.17202
G1 X128.656 Y115.712 E94.19152
G1 X104.288 Y91.344 E95.358
G1 X104.863 Y91.344 E95.37746
G1 X128.656 Y115.137 E96.51642
G1 X128.656 Y114.561 E96.53592
G1 X105.439 Y91.344 E97.6473
G1 X106.015 Y91.344 E97.6668
G1 X128.656 Y113.985 E98.75061
G1 X128.656 Y113.41 E98.77007
G1 X106.59 Y91.344 E99.82636
G1 X107.166 Y91.344 E99.84586
G1 X128.656 Y112.834 E100.87457
G1 X128.656 Y112.258 E100.89407
G1 X107.742 Y91.344 E101.89521
G1 X108.318 Y91.344 E101.91471
G1 X128.656 Y111.683 E102.8883
G1 X128.656 Y111.107 E102.9078
G1 X108.893 Y91.344 E103.85384
G1 X109.469 Y91.344 E103.87334
G1 X128.656 Y110.531 E104.79181
G1 X128.656 Y109.955 E104.81131
G1 X110.045 Y91.344 E105.70221
G1 X110.62 Y91.344 E105.72167
M73 P95 R4
M73 Q95 S4
G1 X128.656 Y109.38 E106.58504
G1 X128.656 Y108.804 E106.60454
G1 X111.196 Y91.344 E107.44034
G1 X111.772 Y91.344 E107.45984
G1 X128.656 Y108.228 E108.26807
G1 X128.656 Y107.653 E108.28753
G1 X112.347 Y91.344 E109.06823
G1 X112.923 Y91.344 E109.08773
G1 X128.656 Y107.077 E109.84086
G1 X128.656 Y106.501 E109.86036
G1 X113.499 Y91.344 E110.58592
G1 X114.074 Y91.344 E110.60538
G1 X128.656 Y105.926 E111.30341
G1 X128.656 Y105.35 E111.32291
G1 X114.65 Y91.344 E111.99337
G1 X115.226 Y91.344 E112.01287
G1 X128.656 Y104.774 E112.65576
G1 X128.656 Y104.198 E112.67526
G1 X115.802 Y91.344 E113.29057
G1 X116.377 Y91.344 E113.31003
G1 X128.656 Y103.623 E113.89782
G1 X128.656 Y103.047 E113.91732
G1 X116.953 Y91.344 E114.47754
G1 X117.529 Y91.344 E114.49704
G1 X128.656 Y102.471 E115.02968
G1 X128.656 Y101.896 E115.04914
G1 X118.104 Y91.344 E115.55426
G1 X118.68 Y91.344 E115.57376
G1 X128.656 Y101.32 E116.0513
G1 X128.656 Y100.744 E116.0708
G1 X119.256 Y91.344 E116.52077
G1 X119.831 Y91.344 E116.54023
G1 X128.656 Y100.169 E116.96268
G1 X128.656 Y99.593 E116.98218
G1 X120.407 Y91.344 E117.37705
G1 X120.983 Y91.344 E117.39655
G1 X128.656 Y99.017 E117.76385
G1 X128.656 Y98.441 E117.78335
G1 X121.559 Y91.344 E118.12308
G1 X122.134 Y91.344 E118.14254
G1 X128.656 Y97.866 E118.45474
G1 X128.656 Y97.29 E118.47424
G1 X122.71 Y91.344 E118.75887
G1 X123.286 Y91.344 E118.77837
G1 X128.656 Y96.714 E119.03543
G1 X128.656 Y96.139 E119.05489
G1 X123.861 Y91.344 E119.28442
G1 X124.437 Y91.344 E119.30392
G1 X128.656 Y95.563 E119.50588
G1 X128.656 Y94.987 E119.52538
G1 X125.013 Y91.344 E119.69977
G1 X125.588 Y91.344 E119.71923
G1 X128.656 Y94.412 E119.86609
G1 X128.656 Y93.836 E119.88559
G1 X126.164 Y91.344 E120.00488
G1 X126.573 Y91.13 E120.0205
;WIDTH:0.38292
G1 X126.553 Y91.201 E120.02259
G1 X126.625 Y91.182 E120.0247
G1 X126.614 Y91.141 E120.0259
;WIDTH:0.41646
G1 X126.677 Y91.243 E120.02962
;WIDTH:0.449999
G1 X126.74 Y91.344 E120.03365
G1 X128.656 Y93.26 E120.12537
G1 X128.757 Y93.323 E120.1294
;WIDTH:0.41646
G1 X128.859 Y93.386 E120.13312
;WIDTH:0.38292
G1 X128.87 Y93.427 E120.13432
G1 X128.799 Y93.447 E120.13641
G1 X128.818 Y93.375 E120.13852
G1 E118.13852 F2400
G92 E0
G1 X127.459 Y91.488 F7800
G1 E2 F2400
;WIDTH:0.449999
G1 F1200
G1 X128.656 Y92.684 E2.05728
G1 X128.656 Y91.344 E2.10264
G1 X127.316 Y91.344 E2.148
;LAYER_CHANGE
;Z:40.3
;HEIGHT:0.200001
G1 E.148 F2400
G92 E0
G1 Z40.3 F7800
G1 X128.961 Y128.961
G1 E2 F2400
;TYPE:Perimeter
G1 F4800
G1 X91.039 Y128.961 E3.28361
G1 X91.039 Y91.039 E4.56722
G1 X128.961 Y91.039 E5.85083
G1 X128.961 Y128.901 E7.13241
G1 X129.368 Y129.368 F7800
G1 F4800
G1 X90.632 Y129.368 E8.44358
G1 X90.632 Y90.632 E9.75475
G1 X129.368 Y90.632 E11.06592
G1 X129.368 Y129.308 E12.37505
G1 X129.775 Y129.775 F7800
;TYPE:External perimeter
G1 F2400
G1 X90.225 Y129.775 E13.71377
G1 X90.225 Y90.225 E15.05249
G1 X129.775 Y90.225 E16.39121
G1 X129.775 Y129.715 E17.7279
G1 X129.379 Y129.774 F7800
M73 Q96 S4
G1 X128.841 Y128.117
;TYPE:Top solid infill
;WIDTH:0.400916
G1 F900
G1 X128.278 Y128.681 E17.75162
G1 X127.772 Y128.681 E17.76668
G1 X128.681 Y127.772 E17.80495
G1 X128.681 Y127.266 E17.82001
G1 X127.266 Y128.681 E17.87958
G1 X126.759 Y128.681 E17.89467
G1 X128.681 Y126.759 E17.97558
G1 X128.681 Y126.253 E17.99064
G1 X126.253 Y128.681 E18.09285
G1 X125.747 Y128.681 E18.10791
G1 X128.681 Y125.747 E18.23142
G1 X128.681 Y125.24 E18.24651
G1 X125.24 Y128.681 E18.39137
G1 X124.734 Y128.681 E18.40643
G1 X128.681 Y124.734 E18.57259
G1 X128.681 Y124.228 E18.58765
G1 X124.228 Y128.681 E18.77511
G1 X123.722 Y128.681 E18.79017
G1 X128.681 Y123.722 E18.99893
G1 X128.681 Y123.215 E19.01402
G1 X123.215 Y128.681 E19.24413
G1 X122.709 Y128.681 E19.25919
G1 X128.681 Y122.709 E19.5106
G1 X128.681 Y122.203 E19.52566
G1 X122.203 Y128.681 E19.79837
G1 X121.696 Y128.681 E19.81346
G1 X128.681 Y121.696 E20.10751
G1 X128.681 Y121.19 E20.12257
G1 X121.19 Y128.681 E20.43792
G1 X120.684 Y128.681 E20.45298
M73 P96 R4
G1 X128.681 Y120.684 E20.78963
G1 X128.681 Y120.178 E20.80469
G1 X120.178 Y128.681 E21.16265
G1 X119.671 Y128.681 E21.17774
G1 X128.681 Y119.671 E21.55704
G1 X128.681 Y119.165 E21.5721
G1 X119.165 Y128.681 E21.9727
G1 X118.659 Y128.681 E21.98776
G1 X128.681 Y118.659 E22.40966
G1 X128.681 Y118.152 E22.42475
G1 X118.152 Y128.681 E22.868
G1 X117.646 Y128.681 E22.88306
G1 X128.681 Y117.646 E23.34761
G1 X128.681 Y117.14 E23.36267
G1 X117.14 Y128.681 E23.84852
G1 X116.634 Y128.681 E23.86358
G1 X128.681 Y116.634 E24.37073
G1 X128.681 Y116.127 E24.38582
G1 X116.127 Y128.681 E24.91431
G1 X115.621 Y128.681 E24.92937
G1 X128.681 Y115.621 E25.47916
G1 X128.681 Y115.115 E25.49422
G1 X115.115 Y128.681 E26.06532
G1 X114.608 Y128.681 E26.08041
G1 X128.681 Y114.608 E26.67285
G1 X128.681 Y114.102 E26.68791
G1 X114.102 Y128.681 E27.30165
G1 X113.596 Y128.681 E27.31671
G1 X128.681 Y113.596 E27.95175
G1 X128.681 Y113.09 E27.96681
G1 X113.09 Y128.681 E28.62315
G1 X112.583 Y128.681 E28.63824
G1 X128.681 Y112.583 E29.31593
G1 X128.681 Y112.077 E29.33099
G1 X112.077 Y128.681 E30.02998
G1 X111.571 Y128.681 E30.04504
G1 X128.681 Y111.571 E30.76533
G1 X128.681 Y111.065 E30.78039
M73 P96 R3
M73 Q96 S3
G1 X111.064 Y128.681 E31.522
G1 X110.558 Y128.681 E31.53706
G1 X128.681 Y110.558 E32.29999
G1 X128.681 Y110.052 E32.31505
G1 X110.052 Y128.681 E33.09929
G1 X109.546 Y128.681 E33.11435
G1 X128.681 Y109.546 E33.91989
G1 X128.681 Y109.039 E33.93498
G1 X109.039 Y128.681 E34.76186
G1 X108.533 Y128.681 E34.77692
G1 X128.681 Y108.533 E35.6251
G1 X128.681 Y108.027 E35.64016
G1 X108.027 Y128.681 E36.50964
G1 X107.521 Y128.681 E36.5247
G1 X128.681 Y107.521 E37.41548
G1 X128.681 Y107.014 E37.43057
G1 X107.014 Y128.681 E38.3427
G1 X106.508 Y128.681 E38.35776
G1 X128.681 Y106.508 E39.29119
G1 X128.681 Y106.002 E39.30625
G1 X106.002 Y128.681 E40.26098
G1 X105.495 Y128.681 E40.27607
G1 X128.681 Y105.495 E41.25214
G1 X128.681 Y104.989 E41.2672
G1 X104.989 Y128.681 E42.26458
G1 X104.483 Y128.681 E42.27964
G1 X128.681 Y104.483 E43.29832
G1 X128.681 Y103.977 E43.31338
G1 X103.977 Y128.681 E44.35336
G1 X103.47 Y128.681 E44.36845
G1 X128.681 Y103.47 E45.42977
G1 X128.681 Y102.964 E45.44483
G1 X102.964 Y128.681 E46.52745
G1 X102.458 Y128.681 E46.54251
G1 X128.681 Y102.458 E47.64643
G1 X128.681 Y101.951 E47.66152
M73 Q97 S3
G1 X101.951 Y128.681 E48.78679
G1 X101.445 Y128.681 E48.80185
G1 X128.681 Y101.445 E49.94842
G1 X128.681 Y100.939 E49.96348
M73 P97 R3
G1 X100.939 Y128.681 E51.13135
G1 X100.433 Y128.681 E51.14641
G1 X128.681 Y100.433 E52.33558
G1 X128.681 Y99.926 E52.35067
G1 X99.926 Y128.681 E53.56119
G1 X99.42 Y128.681 E53.57625
G1 X128.681 Y99.42 E54.80807
G1 X128.681 Y98.914 E54.82313
G1 X98.914 Y128.681 E56.07625
G1 X98.407 Y128.681 E56.09134
G1 X128.681 Y98.407 E57.3658
G1 X128.681 Y97.901 E57.38086
M73 P97 R2
M73 Q97 S2
G1 X97.901 Y128.681 E58.67662
G1 X97.395 Y128.681 E58.69168
G1 X128.681 Y97.395 E60.00875
G1 X128.681 Y96.889 E60.02381
G1 X96.889 Y128.681 E61.36218
G1 X96.382 Y128.681 E61.37727
G1 X128.681 Y96.382 E62.73698
G1 X128.681 Y95.876 E62.75204
G1 X95.876 Y128.681 E64.13305
G1 X95.37 Y128.681 E64.14811
G1 X128.681 Y95.37 E65.55042
G1 X128.681 Y94.863 E65.56551
G1 X94.863 Y128.681 E66.98917
G1 X94.357 Y128.681 E67.00423
G1 X128.681 Y94.357 E68.44919
G1 X128.681 Y93.851 E68.46425
G1 X93.851 Y128.681 E69.93051
G1 X93.345 Y128.681 E69.94557
G1 X128.681 Y93.345 E71.43313
G1 X128.681 Y92.838 E71.44822
G1 X92.838 Y128.681 E72.95712
G1 X92.332 Y128.681 E72.97218
G1 X128.681 Y92.332 E74.50239
G1 X128.681 Y91.826 E74.51745
G1 X91.826 Y128.681 E76.06896
G1 X91.319 Y128.681 E76.08405
G1 X128.681 Y91.319 E77.6569
G1 X128.174 Y91.319 E77.67199
M73 Q98 S2
G1 X91.319 Y128.174 E79.2235
G1 X91.319 Y127.668 E79.23856
M73 P98 R2
G1 X127.668 Y91.319 E80.76877
G1 X127.162 Y91.319 E80.78383
G1 X91.319 Y127.162 E82.29273
G1 X91.319 Y126.655 E82.30782
G1 X126.655 Y91.319 E83.79538
G1 X126.149 Y91.319 E83.81044
G1 X91.319 Y126.149 E85.2767
G1 X91.319 Y125.643 E85.29176
M73 P98 R1
M73 Q98 S1
G1 X125.643 Y91.319 E86.73672
G1 X125.137 Y91.319 E86.75178
G1 X91.319 Y125.137 E88.17544
G1 X91.319 Y124.63 E88.19053
G1 X124.63 Y91.319 E89.59284
G1 X124.124 Y91.319 E89.6079
G1 X91.319 Y124.124 E90.98891
G1 X91.319 Y123.618 E91.00397
G1 X123.618 Y91.319 E92.36368
G1 X123.111 Y91.319 E92.37877
G1 X91.319 Y123.111 E93.71714
G1 X91.319 Y122.605 E93.7322
G1 X122.605 Y91.319 E95.04927
G1 X122.099 Y91.319 E95.06433
G1 X91.319 Y122.099 E96.36009
G1 X91.319 Y121.593 E96.37515
G1 X121.593 Y91.319 E97.64961
G1 X121.086 Y91.319 E97.6647
G1 X91.319 Y121.086 E98.91782
G1 X91.319 Y120.58 E98.93288
G1 X120.58 Y91.319 E100.1647
G1 X120.074 Y91.319 E100.17976
G1 X91.319 Y120.074 E101.39028
G1 X91.319 Y119.567 E101.40537
G1 X119.567 Y91.319 E102.59454
G1 X119.061 Y91.319 E102.6096
G1 X91.319 Y119.061 E103.77747
G1 X91.319 Y118.555 E103.79253
G1 X118.555 Y91.319 E104.9391
G1 X118.049 Y91.319 E104.95416
G1 X91.319 Y118.049 E106.07943
G1 X91.319 Y117.542 E106.09452
G1 X117.542 Y91.319 E107.19844
G1 X117.036 Y91.319 E107.2135
G1 X91.319 Y117.036 E108.29612
G1 X91.319 Y116.53 E108.31118
M73 P99 R1
M73 Q99 S1
G1 X116.53 Y91.319 E109.3725
G1 X116.023 Y91.319 E109.38759
G1 X91.319 Y116.023 E110.42757
G1 X91.319 Y115.517 E110.44263
G1 X115.517 Y91.319 E111.46131
G1 X115.011 Y91.319 E111.47637
M73 P99 R0
M73 Q99 S0
G1 X91.319 Y115.011 E112.47375
G1 X91.319 Y114.505 E112.48881
G1 X114.505 Y91.319 E113.46488
G1 X113.998 Y91.319 E113.47997
G1 X91.319 Y113.998 E114.4347
G1 X91.319 Y113.492 E114.44976
G1 X113.492 Y91.319 E115.38319
G1 X112.986 Y91.319 E115.39825
G1 X91.319 Y112.986 E116.31038
G1 X91.319 Y112.479 E116.32547
G1 X112.479 Y91.319 E117.21625
G1 X111.973 Y91.319 E117.23131
G1 X91.319 Y111.973 E118.10079
G1 X91.319 Y111.467 E118.11585
G1 X111.467 Y91.319 E118.96403
G1 X110.961 Y91.319 E118.97909
G1 X91.319 Y110.961 E119.80597
G1 X91.319 Y110.454 E119.82106
G1 X110.454 Y91.319 E120.6266
G1 X109.948 Y91.319 E120.64166
G1 X91.319 Y109.948 E121.4259
G1 X91.319 Y109.442 E121.44096
G1 X109.442 Y91.319 E122.20389
G1 X108.936 Y91.319 E122.21895
G1 X91.319 Y108.936 E122.96058
G1 X91.319 Y108.429 E122.97567
G1 X108.429 Y91.319 E123.69596
G1 X107.923 Y91.319 E123.71102
G1 X91.319 Y107.923 E124.41001
G1 X91.319 Y107.417 E124.42507
G1 X107.417 Y91.319 E125.10276
G1 X106.91 Y91.319 E125.11785
G1 X91.319 Y106.91 E125.77419
G1 X91.319 Y106.404 E125.78925
G1 X106.404 Y91.319 E126.42429
G1 X105.898 Y91.319 E126.43935
G1 X91.319 Y105.898 E127.05309
G1 X91.319 Y105.392 E127.06815
G1 X105.392 Y91.319 E127.66059
G1 X104.885 Y91.319 E127.67568
G1 X91.319 Y104.885 E128.24678
G1 X91.319 Y104.379 E128.26184
G1 X104.379 Y91.319 E128.81163
G1 X103.873 Y91.319 E128.82669
G1 X91.319 Y103.873 E129.35518
G1 X91.319 Y103.366 E129.37027
G1 X103.366 Y91.319 E129.87742
G1 X102.86 Y91.319 E129.89248
G1 X91.319 Y102.86 E130.37833
G1 X91.319 Y102.354 E130.39339
G1 X102.354 Y91.319 E130.85794
G1 X101.848 Y91.319 E130.873
G1 X91.319 Y101.848 E131.31625
G1 X91.319 Y101.341 E131.33134
G1 X101.341 Y91.319 E131.75324
G1 X100.835 Y91.319 E131.7683
G1 X91.319 Y100.835 E132.1689
G1 X91.319 Y100.329 E132.18396
G1 X100.329 Y91.319 E132.56326
G1 X99.822 Y91.319 E132.57835
G1 X91.319 Y99.822 E132.93631
G1 X91.319 Y99.316 E132.95137
G1 X99.316 Y91.319 E133.28802
G1 X98.81 Y91.319 E133.30308
G1 X91.319 Y98.81 E133.61843
G1 X91.319 Y98.304 E133.63349
G1 X98.304 Y91.319 E133.92754
G1 X97.797 Y91.319 E133.94263
G1 X91.319 Y97.797 E134.21534
G1 X91.319 Y97.291 E134.2304
G1 X97.291 Y91.319 E134.48181
G1 X96.785 Y91.319 E134.49687
G1 X91.319 Y96.785 E134.72698
G1 X91.319 Y96.278 E134.74207
G1 X96.278 Y91.319 E134.95083
G1 X95.772 Y91.319 E134.96589
G1 X91.319 Y95.772 E135.15335
G1 X91.319 Y95.266 E135.16841
G1 X95.266 Y91.319 E135.33457
G1 X94.76 Y91.319 E135.34963
G1 X91.319 Y94.76 E135.49449
G1 X91.319 Y94.253 E135.50958
G1 X94.253 Y91.319 E135.63309
G1 X93.747 Y91.319 E135.64815
G1 X91.319 Y93.747 E135.75036
G1 X91.319 Y93.241 E135.76542
G1 X93.241 Y91.319 E135.84633
G1 X92.734 Y91.319 E135.86142
G1 X91.319 Y92.734 E135.92099
G1 X91.319 Y92.228 E135.93605
G1 X92.228 Y91.319 E135.97432
G1 X91.722 Y91.319 E135.98938
G1 X91.159 Y91.883 E136.0131
; stop printing object box.stl id:0 copy 0
G1 E134.0131 F2400
G92 E0
M107
;TYPE:Custom
; Filament-specific end gcode
G91 ; Use relative positioning
G1 E-1 F1000 ; Retract filament slightly to prevent oozing
G1 Z+100 F1000 ; Move Z axis up by 10mm
G90 ; Use absolute positioning

G1 X0 Y200 F3000 ; Move bed forward to present the print
M106 S0 ; Turn off cooling fan
#M104 S0 ; Turn off extruder heater
M140 S0 ; Turn off bed heater

M84 ; Disable steppers
M73 P100 R0
M73 Q100 S0
; objects_info = {"objects":[{"name":"box.stl id:0 copy 0","polygon":[[130.000,130.000],[90.000,130.000],[90.000,90.000],[130.000,90.000]]}]}
; filament used [mm] = 18497.09
; filament used [cm3] = 44.49
; filament used [g] = 56.50
; filament cost = 2260.13
; total filament used [g] = 56.50
; total filament cost = 2260.13
; total filament used for wipe tower [g] = 0.00
; estimated printing time (normal mode) = 1h 49m 18s
; estimated printing time (silent mode) = 1h 51m 46s
; estimated first layer printing time (normal mode) = 4m 23s
; estimated first layer printing time (silent mode) = 4m 24s

; prusaslicer_config = begin
; arc_fitting = disabled
; autoemit_temperature_commands = 1
; automatic_extrusion_widths = 0
; automatic_infill_combination = 1
; automatic_infill_combination_max_layer_height = 100%
; avoid_crossing_curled_overhangs = 0
; avoid_crossing_perimeters = 0
; avoid_crossing_perimeters_max_detour = 0
; bed_custom_model = 
; bed_custom_texture = 
; bed_shape = 0x0,220x0,220x220,0x220
; bed_temperature = 80
; bed_temperature_extruder = 0
; before_layer_gcode = 
; between_objects_gcode = 
; binary_gcode = 0
; bottom_fill_pattern = monotonic
; bottom_solid_layers = 3
; bottom_solid_min_thickness = 0
; bridge_acceleration = 0
; bridge_angle = 0
; bridge_fan_speed = 35
; bridge_flow_ratio = 1
; bridge_speed = 60
; brim_separation = 0.2
; brim_type = outer_and_inner
; brim_width = 5
; chamber_minimal_temperature = 0
; chamber_temperature = 0
; color_change_gcode = M600
; colorprint_heights = 
; compatible_printers_condition_cummulative = ;"printer_notes!~/.*NO_TEMPLATES.*/ and printer_notes!~/.*PRINTER_VENDOR_TRILAB.*/ and printer_notes!~/.*PRINTER_MODEL_MK4IS.*/ and ! (printer_notes=~/.*PRINTER_VENDOR_PRUSA3D.*/ and num_extruders>1)"
; complete_objects = 1
; cooling = 1
; cooling_perimeter_transition_distance = 0
; cooling_slowdown_logic = uniform_cooling
; cooling_tube_length = 5
; cooling_tube_retraction = 91.5
; custom_parameters_filament = ""
; custom_parameters_print = 
; custom_parameters_printer = 
; default_acceleration = 0
; default_filament_profile = 
; default_print_profile = 
; deretract_speed = 0
; disable_fan_first_layers = 3
; dont_support_bridges = 1
; draft_shield = disabled
; duplicate_distance = 6
; elefant_foot_compensation = 0
; enable_dynamic_fan_speeds = 0
; enable_dynamic_overhang_speeds = 0
; end_filament_gcode = "; Filament-specific end gcode"
; end_gcode = G91 ; Use relative positioning\nG1 E-1 F1000 ; Retract filament slightly to prevent oozing\nG1 Z+100 F1000 ; Move Z axis up by 10mm\nG90 ; Use absolute positioning\n\nG1 X0 Y200 F3000 ; Move bed forward to present the print\nM106 S0 ; Turn off cooling fan\n#M104 S0 ; Turn off extruder heater\nM140 S0 ; Turn off bed heater\n\nM84 ; Disable steppers
; ensure_vertical_shell_thickness = enabled
; external_perimeter_acceleration = 0
; external_perimeter_extrusion_width = 0
; external_perimeter_speed = 50%
; external_perimeters_first = 0
; extra_loading_move = -2
; extra_perimeters = 1
; extra_perimeters_on_overhangs = 0
; extruder_clearance_height = 20
; extruder_clearance_radius = 25
; extruder_colour = #FF0000
; extruder_offset = 0x0
; extrusion_axis = E
; extrusion_multiplier = 1
; extrusion_width = 0
; fan_always_on = 1
; fan_below_layer_time = 8
; filament_abrasive = 0
; filament_colour = #0000FF
; filament_cooling_final_speed = 2
; filament_cooling_initial_speed = 3
; filament_cooling_moves = 1
; filament_cost = 40000
; filament_density = 1.27
; filament_deretract_speed = nil
; filament_diameter = 1.75
; filament_infill_max_crossing_speed = 0
; filament_infill_max_speed = 0
; filament_load_time = 0
; filament_loading_speed = 14
; filament_loading_speed_start = 19
; filament_max_volumetric_speed = 0
; filament_minimal_purge_on_wipe_tower = 0
; filament_multitool_ramming = 0
; filament_multitool_ramming_flow = 10
; filament_multitool_ramming_volume = 10
; filament_notes = ""
; filament_purge_multiplier = 100%
; filament_ramming_parameters = "130 120 2.70968 2.93548 3.32258 3.83871 4.58065 5.54839 6.51613 7.35484 7.93548 8.16129| 0.05 2.66451 0.45 3.05805 0.95 4.05807 1.45 5.97742 1.95 7.69999 2.45 8.1936 2.95 11.342 3.45 11.4065 3.95 7.6 4.45 7.6 4.95 7.6"
; filament_retract_before_travel = nil
; filament_retract_before_wipe = nil
; filament_retract_layer_change = nil
; filament_retract_length = nil
; filament_retract_length_toolchange = nil
; filament_retract_lift = nil
; filament_retract_lift_above = nil
; filament_retract_lift_below = nil
; filament_retract_restart_extra = nil
; filament_retract_restart_extra_toolchange = nil
; filament_retract_speed = nil
; filament_seam_gap_distance = nil
; filament_settings_id = "PETG Local"
; filament_shrinkage_compensation_xy = 0%
; filament_shrinkage_compensation_z = 0%
; filament_soluble = 0
; filament_spool_weight = 1000
; filament_stamping_distance = 0
; filament_stamping_loading_speed = 20
; filament_toolchange_delay = 0
; filament_travel_lift_before_obstacle = nil
; filament_travel_max_lift = nil
; filament_travel_ramping_lift = nil
; filament_travel_slope = nil
; filament_type = PETG
; filament_unload_time = 0
; filament_unloading_speed = 20
; filament_unloading_speed_start = 100
; filament_vendor = addnorth
; filament_wipe = nil
; fill_angle = 45
; fill_density = 70%
; fill_pattern = supportcubic
; first_layer_acceleration = 0
; first_layer_acceleration_over_raft = 0
; first_layer_bed_temperature = 80
; first_layer_extrusion_width = 200%
; first_layer_height = 0.2
; first_layer_infill_speed = 0
; first_layer_speed = 30
; first_layer_speed_over_raft = 30
; first_layer_temperature = 230
; full_fan_speed_layer = 0
; fuzzy_skin = none
; fuzzy_skin_point_dist = 0.8
; fuzzy_skin_thickness = 0.3
; gap_fill_enabled = 1
; gap_fill_speed = 20
; gcode_comments = 0
; gcode_flavor = marlin
; gcode_label_objects = octoprint
; gcode_resolution = 0.0125
; gcode_substitutions = 
; high_current_on_filament_swap = 0
; host_type = prusalink
; idle_temperature = nil
; infill_acceleration = 0
; infill_anchor = 600%
; infill_anchor_max = 50
; infill_every_layers = 1
; infill_extruder = 1
; infill_extrusion_width = 0
; infill_first = 0
; infill_overlap = 25%
; infill_speed = 80
; inherits_cummulative = ;"addnorth ESD-PETG @Template";
; interface_shells = 0
; interlocking_beam = 0
; interlocking_beam_layer_count = 2
; interlocking_beam_width = 0.8
; interlocking_boundary_avoidance = 2
; interlocking_depth = 2
; interlocking_orientation = 22.5
; ironing = 0
; ironing_flowrate = 15%
; ironing_spacing = 0.1
; ironing_speed = 15
; ironing_type = top
; layer_gcode = 
; layer_height = 0.2
; machine_limits_usage = time_estimate_only
; machine_max_acceleration_e = 10000,5000
; machine_max_acceleration_extruding = 1500,1250
; machine_max_acceleration_retracting = 1500,1250
; machine_max_acceleration_travel = 1500,1250
; machine_max_acceleration_x = 9000,1000
; machine_max_acceleration_y = 9000,1000
; machine_max_acceleration_z = 500,200
; machine_max_feedrate_e = 120,120
; machine_max_feedrate_x = 500,200
; machine_max_feedrate_y = 500,200
; machine_max_feedrate_z = 12,12
; machine_max_jerk_e = 2.5,2.5
; machine_max_jerk_x = 10,10
; machine_max_jerk_y = 10,10
; machine_max_jerk_z = 0.2,0.4
; machine_max_junction_deviation = 0,0
; machine_min_extruding_rate = 0,0
; machine_min_travel_rate = 0,0
; max_fan_speed = 30
; max_layer_height = 0
; max_print_height = 200
; max_print_speed = 80
; max_volumetric_extrusion_rate_slope_negative = 0
; max_volumetric_extrusion_rate_slope_positive = 0
; max_volumetric_speed = 0
; min_bead_width = 85%
; min_fan_speed = 15
; min_feature_size = 25%
; min_layer_height = 0.05
; min_print_speed = 15
; min_skirt_length = 0
; mmu_segmented_region_interlocking_depth = 0
; mmu_segmented_region_max_width = 0
; multimaterial_purging = 140
; notes = 
; nozzle_diameter = 0.4
; nozzle_high_flow = 0
; only_one_perimeter_first_layer = 0
; only_retract_when_crossing_perimeters = 0
; ooze_prevention = 0
; output_filename_format = [print_time],[filament_type],[input_filename_base].gcode
; over_bridge_speed = 0
; overhang_fan_speed_0 = 0
; overhang_fan_speed_1 = 0
; overhang_fan_speed_2 = 0
; overhang_fan_speed_3 = 0
; overhang_speed_0 = 15
; overhang_speed_1 = 15
; overhang_speed_2 = 20
; overhang_speed_3 = 25
; overhangs = 1
; parking_pos_retraction = 92
; pause_print_gcode = M601
; perimeter_acceleration = 0
; perimeter_extruder = 1
; perimeter_extrusion_width = 0
; perimeter_generator = arachne
; perimeter_speed = 80
; perimeters = 3
; physical_printer_settings_id = 
; post_process = 
; prefer_clockwise_movements = 0
; print_settings_id = Anet
; printer_model = 
; printer_notes = 
; printer_settings_id = Anet
; printer_technology = FFF
; printer_variant = 
; printer_vendor = 
; raft_contact_distance = 0.1
; raft_expansion = 1.5
; raft_first_layer_density = 90%
; raft_first_layer_expansion = 3
; raft_layers = 0
; remaining_times = 1
; resolution = 0
; retract_before_travel = 2
; retract_before_wipe = 0%
; retract_layer_change = 0
; retract_length = 2
; retract_length_toolchange = 10
; retract_lift = 0
; retract_lift_above = 0
; retract_lift_below = 0
; retract_restart_extra = 0
; retract_restart_extra_toolchange = 0
; retract_speed = 40
; scarf_seam_entire_loop = 0
; scarf_seam_length = 20
; scarf_seam_max_segment_length = 1
; scarf_seam_on_inner_perimeters = 0
; scarf_seam_only_on_smooth = 1
; scarf_seam_placement = nowhere
; scarf_seam_start_height = 0%
; seam_gap_distance = 15%
; seam_position = aligned
; silent_mode = 1
; single_extruder_multi_material = 0
; single_extruder_multi_material_priming = 1
; skirt_distance = 6
; skirt_height = 1
; skirts = 0
; slice_closing_radius = 0.049
; slicing_mode = regular
; slowdown_below_layer_time = 10
; small_perimeter_speed = 15
; solid_infill_acceleration = 0
; solid_infill_below_area = 70
; solid_infill_every_layers = 0
; solid_infill_extruder = 1
; solid_infill_extrusion_width = 0
; solid_infill_speed = 20
; spiral_vase = 0
; staggered_inner_seams = 0
; standby_temperature_delta = -5
; start_filament_gcode = "; Filament gcode\n"
; start_gcode = M117 Heating and Homing... ; Display message on screen\nG90 ; Use absolute coordinates\nM83 ; Extruder relative mode\nG28 ; Home all axes\nM104 S[first_layer_temperature] ; Set extruder temperature without waiting\nM140 S[first_layer_bed_temperature] ; Set bed temperature without waiting\n\nM190 S[first_layer_bed_temperature] ; Wait for bed to reach temperature\nM109 S[first_layer_temperature] ; Wait for extruder to reach temperature\n\nG92 E0 ; Reset extrusion distance\nG1 Z5 F720 ; Move nozzle above the bed\nG1 Z5 F720 ; Move nozzle slightly above the bed\nG1 X3 Y200 Z0.2 F1000 E10 ; Draw a prime line along the left edge\nG1 X6 Y20 Z0.2 F1000 E10 ;Draw an Second prime line along the left edge \nG28 ; Home all axes\nG1 Z10; Z AXIS FROM SAFE POINT.\nG92 E0 ; Reset extrusion distance\n
; support_material = 0
; support_material_angle = 0
; support_material_auto = 1
; support_material_bottom_contact_distance = 0
; support_material_bottom_interface_layers = -1
; support_material_buildplate_only = 1
; support_material_closing_radius = 2
; support_material_contact_distance = 0.2
; support_material_enforce_layers = 0
; support_material_extruder = 1
; support_material_extrusion_width = 0
; support_material_interface_contact_loops = 0
; support_material_interface_extruder = 1
; support_material_interface_layers = 3
; support_material_interface_pattern = rectilinear
; support_material_interface_spacing = 0
; support_material_interface_speed = 100%
; support_material_pattern = rectilinear
; support_material_spacing = 2.5
; support_material_speed = 60
; support_material_style = grid
; support_material_synchronize_layers = 0
; support_material_threshold = 0
; support_material_with_sheath = 1
; support_material_xy_spacing = 50%
; support_tree_angle = 40
; support_tree_angle_slow = 25
; support_tree_branch_diameter = 2
; support_tree_branch_diameter_angle = 5
; support_tree_branch_diameter_double_wall = 3
; support_tree_branch_distance = 1
; support_tree_tip_diameter = 0.8
; support_tree_top_rate = 15%
; temperature = 230
; template_custom_gcode = 
; thick_bridges = 1
; thin_walls = 1
; thumbnails = 
; thumbnails_format = PNG
; toolchange_gcode = 
; top_fill_pattern = monotonic
; top_infill_extrusion_width = 0
; top_one_perimeter_type = none
; top_solid_infill_acceleration = 0
; top_solid_infill_speed = 15
; top_solid_layers = 3
; top_solid_min_thickness = 0
; travel_acceleration = 0
; travel_lift_before_obstacle = 0
; travel_max_lift = 0
; travel_ramping_lift = 0
; travel_short_distance_acceleration = 0
; travel_slope = 0
; travel_speed = 130
; travel_speed_z = 0
; use_firmware_retraction = 0
; use_relative_e_distances = 0
; use_volumetric_e = 0
; variable_layer_height = 1
; wall_distribution_count = 1
; wall_transition_angle = 10
; wall_transition_filter_deviation = 25%
; wall_transition_length = 100%
; wipe = 0
; wipe_into_infill = 0
; wipe_into_objects = 0
; wipe_tower = 0
; wipe_tower_acceleration = 0
; wipe_tower_bridging = 10
; wipe_tower_brim_width = 2
; wipe_tower_cone_angle = 0
; wipe_tower_extra_flow = 100%
; wipe_tower_extra_spacing = 100%
; wipe_tower_extruder = 0
; wipe_tower_no_sparse_layers = 0
; wipe_tower_width = 60
; wiping_volumes_matrix = 0
; wiping_volumes_use_custom_matrix = 0
; xy_size_compensation = 0
; z_offset = 0.3
; prusaslicer_config = end
